System,Facility,CCN,State,State_full,County,City,Zip,Profit Status,Status,Lat,Long
– NOT IN ANY SYSTEM – ,Orthopaedic & Fracture Clinic,–,MN,Minnesota,Blue Earth,Mankato,56001,For profit,2019,44.13203,-93.97704
– NOT IN ANY SYSTEM – ,Overlake Medical Center,500051,WA,Washington,King County,Bellevue,98004,Non-profit,2011-2016,47.61450987,-122.20345
Agilon Health,Family Health Center of Bastrop,–,TX,Texas,Bastrop County,Bastrop,78602,For profit,2018,30.12383,-97.3284
Agilon Health,Premier Family Physicians,–,TX,Texas,Travis County,Austin,78735,For profit,2018,30.2659,-97.86658
Ardent,Hackensack Meridian Health Mountainside Medical Center,310054,NJ,New Jersey,Essex,Montclair,7042,For profit,2019,40.81369,-74.21766
Ardent,Hackensack Meridian Health Pascack Valley Medical Center,310130,NJ,New Jersey,Bergen,Westwood,7675,For profit,2019,41.00911,-74.00429
Ardent,University of Kansas Health System St. Francis Campus,170016,KS,Kansas,Shawnee,Topeka,66606,For profit,2019,39.0616,-95.72116
Ardent,Hillcrest Hospital Claremore,370039,OK,Oklahoma,Rogers County,Claremore,74017,For profit,2017,36.39314,-95.58349
Ardent,Hillcrest Hospital Cushing,370099,OK,Oklahoma,Payne County,Cushing,74023,For profit,2017,35.95802,-96.74985
Ardent,Bailey Medical Center,370228,OK,Oklahoma,Tulsa County, Owasso,74055,For profit,2017,36.27843,-95.81893
Ardent,Hillcrest Medical Center,370001,OK,Oklahoma,Tulsa County,Tulsa,74104,For profit,2017,36.1465,-95.95898
Ardent,Oklahoma Heart Institute,74104,OK,Oklahoma,Tulsa County,Tulsa,74104,For profit,2017,36.1465,-95.94898
Ardent,Tulsa Spine & Specialty Hospital,370216,OK,Oklahoma,Tulsa County,Tulsa,74132,For profit,2017,36.04862,-96.01322
Ardent,Hillcrest Hospital South,370202,OK,Oklahoma,Tulsa County,Tulsa,74133,For profit,2017,36.04146,-95.87941
Ardent,Hillcrest Hospital Pryor,370015,OK,Oklahoma,Mayes County,Pryor,74361,For profit,2017,36.30298,-95.30664
Ardent,Hillcrest Hospital Henryetta,370183,OK,Oklahoma,Okmulgee County,Henryetta,74437,For profit,2017,35.45456,-95.92795
Ardent,Portneuf Medical Center,130028,ID,Idaho,Bannock,Pocatello,83201,For profit,2019,42.88941,-112.38465
Ardent,Heart Hospital of New Mexico at Lovelace Medical Center,320083,NM,New Mexico,Bernalillo County,Albuquerque,87102,For profit,2018,35.08531013,-106.64914
Ardent,Lovelace Medical Center,320009,NM,New Mexico,Bernalillo County,Albuquerque,87102,For profit,2018,35.07664987,-106.64914
Ardent,Lovelace UNM Rehabilitation Hospital,323028,NM,New Mexico,Bernalillo County,Albuquerque,87102,For profit,2018,35.08098,-106.64164
Ardent,Lovelace Women's Hospital,320017,NM,New Mexico,Bernalillo County,Albuquerque,87109,For profit,2018,35.15297,-106.57541
Ardent,Lovelace Westside Hospital,320074,NM,New Mexico,Bernalillo County,Albuquerque,87114,For profit,2018,35.19711,-106.68401
Ardent,Lovelace Regional Hospital - Roswell,320086,NM,New Mexico,Chaves County,Roswell,88201,For profit,2018,33.63973,-104.36994
"Ascension Health - Saint Louis, MO",Baptist Hospital,blank,TN,Tennessee,Davidson County,Nashville,37203,Non-profit,Future Prospects: 2020,36.14934,-86.79034
"Ascension Health - Saint Louis, MO",Columbia Saint Mary's Hospital Milwaukee,520051,WI,Wisconsin,Milwaukee County,Milwaukee,53211,Non-profit,Future Prospects: 2020,43.08258,-87.88418
"Ascension Health - Saint Louis, MO",Sacred Heart Rehabilitation Institute,520051,WI,Wisconsin,Milwaukee County,Milwaukee,53211,Non-profit,Future Prospects: 2020,43.08258,-87.88418
"Ascension Health - Saint Louis, MO",Alexian Brothers Behavioral Health Hospital,144031,IL,Illinois,Cook County,Hoffman Estates,60169,Non-profit,Future Prospects: 2020,42.05039,-88.11666
"Ascension Health - Saint Louis, MO",Saint Alexius Medical Center,140290,IL,Illinois,Cook County,Hoffman Estates,60169,Non-profit,Future Prospects: 2020,42.05039,-88.11666
"Ascension Health - Saint Louis, MO",Saint Vincent's Medical Center,70028,CT,Connecticut,Fairfield County,Bridgeport,6606,Non-profit,Future Prospects: 2020,41.21174,-73.20803
"Ascension Health - Saint Louis, MO",Saint Mary's Hospital at  Amsterdam,330047,NY,New York,Montgomery County,Amsterdam,12010,Non-profit,Future Prospects: 2020,42.93798,-74.17385
"Ascension Health - Saint Louis, MO",Lourdes Hospital,blank,NY,New York,Broome County,Binghamton,13905,Non-profit,Future Prospects: 2020,42.18011,-75.94471
"Ascension Health - Saint Louis, MO",Mount Saint Mary's Hospital and Health Center,330188,NY,New York,Niagara County,Lewiston,14092,Non-profit,Future Prospects: 2020,43.17357,-78.99361
"Ascension Health - Saint Louis, MO",Providence Hospital,90006,DC,none,District of Columbia,Washington,20017,Non-profit,Future Prospects: 2020,38.93845,-76.99317
"Ascension Health - Saint Louis, MO",Saint Agnes Hospital,210011,MD,Maryland,Baltimore city,Baltimore,21229,Non-profit,Future Prospects: 2020,39.28514,-76.69077
"Ascension Health - Saint Louis, MO",Saint Vincent's Medical Center Riverside,100040,FL,Florida,Duval County,Jacksonville,32204,Non-profit,Future Prospects: 2020,30.31648,-81.68074
"Ascension Health - Saint Louis, MO",Saint Vincent's Medical Center Southside,100307,FL,Florida,Duval County,Jacksonville,32216,Non-profit,Future Prospects: 2020,30.27876,-81.58313
"Ascension Health - Saint Louis, MO",Sacred Heart Hospital on the Gulf,100313,FL,Florida,Gulf County,Port Saint Joe,32456,Non-profit,Future Prospects: 2020,29.80706,-85.30262
"Ascension Health - Saint Louis, MO",Sacred Heart Hospital,100025,FL,Florida,Escambia County,Pensacola,32504,Non-profit,Future Prospects: 2020,30.48459,-87.19099
"Ascension Health - Saint Louis, MO",Sacred Heart Hospital on the Emerald Coast,100292,FL,Florida,Walton County,Miramar Beach,32550,Non-profit,Future Prospects: 2020,30.38554,-86.34556
"Ascension Health - Saint Louis, MO",Saint Vincent's Blount,11305,AL,Alabama,Blount County,Oneonta,35121,Non-profit,Future Prospects: 2020,33.94125,-86.45527
"Ascension Health - Saint Louis, MO",Saint Vincent's Saint Clair,10130,AL,Alabama,St. Clair County,Pell City,35125,Non-profit,Future Prospects: 2020,33.62576,-86.29432
"Ascension Health - Saint Louis, MO",Saint Vincent's Birmingham,10056,AL,Alabama,Jefferson County,Birmingham,35205,Non-profit,Future Prospects: 2020,33.49496,-86.80825
"Ascension Health - Saint Louis, MO",Saint Vincent's East,10011,AL,Alabama,Jefferson County,Birmingham,35235,Non-profit,Future Prospects: 2020,33.62409,-86.64834
"Ascension Health - Saint Louis, MO",Providence Hospital,10090,AL,Alabama,Mobile County,Mobile,36608,Non-profit,Future Prospects: 2020,30.68171,-88.29444
"Ascension Health - Saint Louis, MO",Hickman Community Hospital,441300,TN,Tennessee,Hickman County,Centerville,37033,Non-profit,Future Prospects: 2020,35.73429,-87.55115
"Ascension Health - Saint Louis, MO",Middle Tennessee Medical Center,blank,TN,Tennessee,Rutherford County,Murfreesboro,37128,Non-profit,Future Prospects: 2020,35.79916,-86.47278
"Ascension Health - Saint Louis, MO",Saint Thomas Hospital,440082,TN,Tennessee,Davidson County,Nashville,37205,Non-profit,Future Prospects: 2020,36.1112,-86.87256
"Ascension Health - Saint Louis, MO",Saint John's Medical Center,blank,IN,Indiana,Madison County,Anderson,46016,Non-profit,Future Prospects: 2020,40.09784,-85.68149
"Ascension Health - Saint Louis, MO",Saint Vincent Carmel Hospital,150157,IN,Indiana,Hamilton County,Carmel,46032,Non-profit,Future Prospects: 2020,39.96583,-86.17108
"Ascension Health - Saint Louis, MO",Saint Vincent Mercy Hospital,151308,IN,Indiana,Madison County,Elwood,46036,Non-profit,Future Prospects: 2020,40.29519,-85.83109
"Ascension Health - Saint Louis, MO",Saint Vincent Frankfort Hospital,blank,IN,Indiana,Clinton County,Frankfort,46041,Non-profit,Future Prospects: 2020,40.29749,-86.49187
"Ascension Health - Saint Louis, MO",Saint Vincent Seton Specialty Hospital - Indianapolis,152020,IN,Indiana,Marion County,Indianapolis,46201,Non-profit,Future Prospects: 2020,39.77415,-86.10915
"Ascension Health - Saint Louis, MO",Saint Vincent Indianapolis Hospital,150084,IN,Indiana,Marion County,Indianapolis,46260,Non-profit,Future Prospects: 2020,39.89776,-86.17968
"Ascension Health - Saint Louis, MO",Saint Joseph Hospital,150010,IN,Indiana,Howard County,Kokomo,46901,Non-profit,Future Prospects: 2020,40.5253,-86.15659
"Ascension Health - Saint Louis, MO",Saint Vincent Salem Hospital,151314,IN,Indiana,Washington County,Salem,47167,Non-profit,Future Prospects: 2020,38.61184,-86.09584
"Ascension Health - Saint Louis, MO",Saint Vincent Jennings Hospital,151303,IN,Indiana,Jennings County,North Vernon,47265,Non-profit,Future Prospects: 2020,39.01233,-85.62764
"Ascension Health - Saint Louis, MO",Saint Vincent Randolph Hospital,151301,IN,Indiana,Randolph County,Winchester,47394,Non-profit,Future Prospects: 2020,40.16902,-84.98724
"Ascension Health - Saint Louis, MO",Saint Vincent Dunn Hospital,151335,IN,Indiana,Lawrence County,Bedford,47421,Non-profit,Future Prospects: 2020,38.86267,-86.45106
"Ascension Health - Saint Louis, MO",Saint Mary's Warrick Hospital,151325,IN,Indiana,Warrick County,Boonville,47601,Non-profit,Future Prospects: 2020,38.05209,-87.2553
"Ascension Health - Saint Louis, MO",Saint Mary's Medical Center,150100,IN,Indiana,Vanderburgh County,Evansville,47714,Non-profit,Future Prospects: 2020,37.95755,-87.52111
"Ascension Health - Saint Louis, MO",Saint Vincent Clay Hospital,151309,IN,Indiana,Clay County,Brazil,47834,Non-profit,Future Prospects: 2020,39.52584,-87.12124
"Ascension Health - Saint Louis, MO",Saint Vincent Seton Specialty Hospital - Lafayette,152021,IN,Indiana,Tippecanoe County,Lafayette,47901,Non-profit,Future Prospects: 2020,40.41785,-86.88995
"Ascension Health - Saint Louis, MO",Saint Vincent Williamsport Hospital,151307,IN,Indiana,Warren County,Williamsport,47993,Non-profit,Future Prospects: 2020,40.31215,-87.4146
"Ascension Health - Saint Louis, MO",Saint John North Shores Hospital,blank,MI,Michigan,Macomb County,Harrison Township,48045,Non-profit,Future Prospects: 2020,42.59169,-82.83023
"Ascension Health - Saint Louis, MO",Saint John River District Hospital,230241,MI,Michigan,St. Clair County,East China Township,48054,Non-profit,Future Prospects: 2020,42.77074,-82.54496
"Ascension Health - Saint Louis, MO",Providence Hospital,230019,MI,Michigan,Oakland County,Southfield,48075,Non-profit,Future Prospects: 2020,42.46206,-83.23042
"Ascension Health - Saint Louis, MO","Saint John Macomb-Oakland Hospital, Macomb Center",230195,MI,Michigan,Macomb County,Warren,48093,Non-profit,Future Prospects: 2020,42.51418,-83.0148
"Ascension Health - Saint Louis, MO",Brighton Center for Recovery,230279,MI,Michigan,Livingston County,Brighton,48114,Non-profit,Future Prospects: 2020,42.57002,-83.74837
"Ascension Health - Saint Louis, MO",Saint John Hospital and Medical Center,230165,MI,Michigan,Wayne County,Detroit,48236,Non-profit,Future Prospects: 2020,42.42501,-82.89656
"Ascension Health - Saint Louis, MO",Genesys Regional Medical Center,230197,MI,Michigan,Genesee County,Grand Blanc,48439,Non-profit,Future Prospects: 2020,42.91681,-83.62912
"Ascension Health - Saint Louis, MO",Saint Mary's of Michigan - Medical Center,230077,MI,Michigan,Saginaw County,Saginaw,48601,Non-profit,Future Prospects: 2020,43.40419,-83.89371
"Ascension Health - Saint Louis, MO",Saint Mary's of Michigan - Standish Hospital,blank,MI,Michigan,Arenac County,Standish,48658,Non-profit,Future Prospects: 2020,43.98067,-83.93686
"Ascension Health - Saint Louis, MO",Saint Joseph Hospital,230100,MI,Michigan,Iosco County,Tawas City,48763,Non-profit,Future Prospects: 2020,44.25253,-83.61271
"Ascension Health - Saint Louis, MO",Borgess-Lee Memorial Hospital,231315,MI,Michigan,Cass County,Dowagiac,49047,Non-profit,Future Prospects: 2020,42.00404,-86.12198
"Ascension Health - Saint Louis, MO",Borgess Medical Center,230117,MI,Michigan,Kalamazoo County,Kalamazoo,49048,Non-profit,Future Prospects: 2020,42.27284,-85.49849
"Ascension Health - Saint Louis, MO",Borgess-Pipp Hospital,232034,MI,Michigan,Allegan County,Plainwell,49080,Non-profit,Future Prospects: 2020,42.46098,-85.57508
"Ascension Health - Saint Louis, MO",Columbia Saint Mary's Hospital Ozaukee,520027,WI,Wisconsin,Ozaukee County,Mequon,53097,Non-profit,Future Prospects: 2020,43.24581,-88.0067
"Ascension Health - Saint Louis, MO",Orthopaedic Hospital of Wisconsin,520194,WI,Wisconsin,Milwaukee County,Glendale,53110,Non-profit,Future Prospects: 2020,42.94672,-87.86398
"Ascension Health - Saint Louis, MO",Alexian Brothers Medical Center,140258,IL,Illinois,Cook County,Elk Grove Village,60007,Non-profit,Future Prospects: 2020,42.0076,-87.99298
"Ascension Health - Saint Louis, MO",DePaul Center,454032,TX,Texas,McLennan County,Waco,76701,Non-profit,Future Prospects: 2020,31.55202,-97.13858
"Ascension Health - Saint Louis, MO",Providence Health Center,450042,TX,Texas,McLennan County,Waco,76712,Non-profit,Future Prospects: 2020,31.52401,-97.25565
"Ascension Health - Saint Louis, MO",Seton Highland Lakes Hospital,451365,TX,Texas,Burnet County,Burnet,78611,Non-profit,Future Prospects: 2020,30.79177,-98.26016
"Ascension Health - Saint Louis, MO",Seton Medical Center Hays,670056,TX,Texas,Hays County,Kyle,78640,Non-profit,Future Prospects: 2020,29.99495,-97.82313
"Ascension Health - Saint Louis, MO",Seton Edgar B. Davis Hospital,451371,TX,Texas,Caldwell County,Luling,78648,Non-profit,Future Prospects: 2020,29.69106,-97.6345
"Ascension Health - Saint Louis, MO",Seton Medical Center Williamson,670041,TX,Texas,Williamson County,Round Rock,78665,Non-profit,Future Prospects: 2020,30.54489,-97.64379
"Ascension Health - Saint Louis, MO",University Medical Center at Brackenridge,450124,TX,Texas,Travis County,Austin,78701,Non-profit,Future Prospects: 2020,30.27049,-97.74235
"Ascension Health - Saint Louis, MO",Seton Medical Center Austin,450056,TX,Texas,Travis County,Austin,78705,Non-profit,Future Prospects: 2020,30.29437,-97.73355
"Ascension Health - Saint Louis, MO",Dell Children's Medical Center of Central Texas,453310,TX,Texas,Travis County,Austin,78723,Non-profit,Future Prospects: 2020,30.30427,-97.6857
"Ascension Health - Saint Louis, MO",Seton Shoal Creek Hospital,454029,TX,Texas,Travis County,Austin,78731,Non-profit,Future Prospects: 2020,30.34736,-97.76347
"Ascension Health - Saint Louis, MO",Seton Southwest Hospital,450865,TX,Texas,Travis County,Austin,78737,Non-profit,Future Prospects: 2020,30.18779,-97.95966
"Ascension Health - Saint Louis, MO",Seton Northwest Hospital,450867,TX,Texas,Travis County,Austin,78759,Non-profit,Future Prospects: 2020,30.40268,-97.75605
"Ascension Health - Saint Louis, MO",Holy Cross Hospital,31313,AZ,Arizona,Santa Cruz County,Nogales,85621,Non-profit,Future Prospects: 2020,31.42297,-111.03539
"Ascension Health - Saint Louis, MO",Carondelet Heart & Vascular Institute,30100,AZ,Arizona,Pima County,Tucson,85704,Non-profit,Future Prospects: 2020,32.33785,-110.98551
"Ascension Health - Saint Louis, MO",Saint Joseph's Hospital,30011,AZ,Arizona,Pima County,Tucson,85711,Non-profit,Future Prospects: 2020,32.21523,-110.87841
"Ascension Health - Saint Louis, MO",Saint Mary's Hospital,30010,AZ,Arizona,Pima County,Tucson,85745,Non-profit,Future Prospects: 2020,32.25879,-111.08472
"Ascension Health - Saint Louis, MO",Lourdes Medical Center,501337,WA,Washington,Franklin County,Pasco,99301,Non-profit,Future Prospects: 2020,46.38445,-118.94383
"Ascension Health - Saint Louis, MO",Lourdes Counseling Center,504008,WA,Washington,Benton County,Richland,99352,Non-profit,Future Prospects: 2020,46.25224,-119.28784
Austin Regional Clinic (ARC),ARC Buda,–,TX,Texas,Hays County,Buda,78610,For profit,2011-2016,30.07722,-97.83741
Austin Regional Clinic (ARC),ARC Cedar Park,–,TX,Texas,Williamson County,Cedar Park,78613,For profit,2011-2016,30.50895,-97.82463
Austin Regional Clinic (ARC),ARC Cedar Park Medical Plaza,–,TX,Texas,Williamson County,Cedar Park,78613,For profit,2011-2016,30.50395,-97.82963
Austin Regional Clinic (ARC),ARC Now Clinic,–,TX,Texas,Williamson County,Cedar Park,78613,For profit,2011-2016,30.49895,-97.82463
Austin Regional Clinic (ARC),ARC Dripping Springs,–,TX,Texas,Hays County,Dripping Springs,78620,For profit,2011-2016,30.21894,-98.12895
Austin Regional Clinic (ARC),ARC Hutto,–,TX,Texas,Williamson County,Hutto,78634,For profit,2011-2016,30.55906,-97.54472
Austin Regional Clinic (ARC),ARC Kyle Plum Creek,–,TX,Texas,Hays County,Kyle,78640,For profit,2011-2016,29.99495,-97.83313
Austin Regional Clinic (ARC),ARC Leander,–,TX,Texas,Williamson County,Leander,78641,For profit,2011-2016,30.56176,-97.91517
Austin Regional Clinic (ARC),ARC Manor,–,TX,Texas,Travis County,Manor,78653,For profit,2011-2016,30.33942,-97.52362
Austin Regional Clinic (ARC),ARC Kelly Lane,–,TX,Texas,Travis County,Pflugerville,78660,For profit,2011-2016,30.44304,-97.6005
Austin Regional Clinic (ARC),ARC Pflugerville,–,TX,Texas,Travis County,Pflugerville,78660,For profit,2011-2016,30.44304,-97.5905
Austin Regional Clinic (ARC),ARC Bee Cave,–,TX,Texas,Travis County,Bee Cave,78669,For profit,2011-2016,30.42263,-98.12241
Austin Regional Clinic (ARC),ARC Round Rock,–,TX,Texas,Williamson County,Round Rock,78681,For profit,2011-2016,30.53778013,-97.72725
Austin Regional Clinic (ARC),ARC Sendero Springs,–,TX,Texas,Williamson County,Round Rock,78681,For profit,2011-2016,30.52911987,-97.72725
Austin Regional Clinic (ARC),ARC South 1st,–,TX,Texas,Travis County,Austin,78704,For profit,2011-2016,30.24748013,-97.76787
Austin Regional Clinic (ARC),ARC South 1st Specialty,–,TX,Texas,Travis County,Austin,78704,For profit,2011-2016,30.23881987,-97.76787
Austin Regional Clinic (ARC),ARC Medical Park Tower Ob/Gyn,–,TX,Texas,Travis County,Austin,78705,For profit,2011-2016,30.29912528,-97.73700492
Austin Regional Clinic (ARC),ARC Medical Park Tower Orthopedics,–,TX,Texas,Travis County,Austin,78705,For profit,2011-2016,30.29730893,-97.74259509
Austin Regional Clinic (ARC),ARC Anderson Mill,–,TX,Texas,Travis County,Austin,78726,For profit,2011-2016,30.42949,-97.84707
Austin Regional Clinic (ARC),ARC Wilson Parke,–,TX,Texas,Travis County,Austin,78726,For profit,2011-2016,30.42949,-97.83707
Austin Regional Clinic (ARC),ARC Far West,–,TX,Texas,Travis County,Austin,78731,For profit,2011-2016,30.35169013,-97.77097
Austin Regional Clinic (ARC),ARC Far West Medical Tower,–,TX,Texas,Travis County,Austin,78731,For profit,2011-2016,30.34302987,-97.77097
Austin Regional Clinic (ARC),ARC South Og/Gyn,–,TX,Texas,Travis County,Austin,78745,For profit,2011-2016,30.20685,-97.79738
Austin Regional Clinic (ARC),ARC Southwest,–,TX,Texas,Travis County,Austin,78748,For profit,2011-2016,30.16538,-97.82343
Austin Regional Clinic (ARC),ARC Nurture North Ob/Gyn,–,TX,Texas,Travis County,Austin,78759,For profit,2011-2016,30.40768,-97.76105
Austin Regional Clinic (ARC),ARC Quarry Lake,–,TX,Texas,Travis County,Austin,78759,For profit,2011-2016,30.40268,-97.76605
Austin Regional Clinic (ARC),ARC Seton Northwest,–,TX,Texas,Travis County,Austin,78759,For profit,2011-2016,30.39768,-97.76105
Baptist Health Services Group,BMH - Collierville,440217,TN,Tennessee,Shelby County,Memphis,38017,Non-profit,2017,35.06749,-89.65066
Baptist Health Services Group,BMH - Tipton,440131,TN,Tennessee,Tipton County,Covington,38019,Non-profit,2017,35.56347,-89.63018
Baptist Health Services Group,Tennova Healthcare - Dyersburg,440072,TN,Tennessee,Dyer County,Dyersburg,38024,Non-profit,2017,36.03642,-89.38077
Baptist Health Services Group,Lauderdale Community Hospital,441314,TN,Tennessee,Lauderdale County,Ripley,38063,Non-profit,2017,35.75577,-89.63995
Baptist Health Services Group,BMH - Memphis,440048,TN,Tennessee,Shelby County,Memphis,38120,Non-profit,2017,35.12352,-89.85219
Baptist Health Services Group,Tennova Healthcare - Volunteer Martin,440061,TN,Tennessee,Weakley County,Martin,38237,Non-profit,2017,36.35951,-88.83433
Baptist Health Services Group,BMH - Union City,440130,TN,Tennessee,Obion County,Union City,38261,Non-profit,2017,36.43235,-89.11642
Baptist Health Services Group,Tennova Healthcare - Regional Jackson,–,TN,Tennessee,Madison County,Jackson,38305,Non-profit,2017,35.70199,-88.76793
Baptist Health Services Group,BMH Huntingdon,440016,TN,Tennessee,Carroll County,Huntingdon,38344,Non-profit,2017,35.97829,-88.42847
Baptist Health Services Group,Hardin Medical Center,440109,TN,Tennessee,Hardin County,Savannah,38372,Non-profit,2017,35.16952,-88.14368
Baptist Health Services Group,Merit Health Batesville,–,MS,Mississippi,Panola County,Batesville,38606,Non-profit,2017,34.30466,-89.95596
Baptist Health Services Group,Quitman County Hospital,251314,MS,Mississippi,Quitman County,Marks,38646,Non-profit,2017,34.28106,-90.29651
Baptist Health Services Group,BMH - Union County,250006,MS,Mississippi,Union County,New Albany,38652,Non-profit,2017,34.48346,-88.99686
Baptist Health Services Group,BMH - North Mississippi,250034,MS,Mississippi,Lafayette County,Oxford,38655,Non-profit,2017,34.33305,-89.47578
Baptist Health Services Group,Tippah County Hospital,250010,MS,Mississippi,Tippah County,Ripley,38663,Non-profit,2017,34.73986,-88.88963
Baptist Health Services Group,North Oak Regional Medical Center,250126,MS,Mississippi,Tate County,Senatobia,38668,Non-profit,2017,34.60128,-89.91621
Baptist Health Services Group,BMH - De Soto,250141,MS,Mississippi,DeSoto County,Southaven,38671,Non-profit,2017,34.96563,-89.99967
Baptist Health Services Group,Merit Health Gilmore Memorial,250025,MS,Mississippi,Monroe County,Amory,38821,Non-profit,2017,33.97596,-88.43758
Baptist Health Services Group,BMH - Booneville,250044,MS,Mississippi,Prentiss County,Booneville,38829,Non-profit,2017,34.65198,-88.53079
Baptist Health Services Group,Magnolia Regional Health Center,250009,MS,Mississippi,Alcorn County,Corinth,38834,Non-profit,2017,34.91545,-88.5635
Baptist Health Services Group,Trace Regional Hospital,250017,MS,Mississippi,Chickasaw County,Houston,38851,Non-profit,2017,33.90861,-88.96917
Baptist Health Services Group,UMMC Grenada,250168,MS,Mississippi,Grenada County,Grenada,38901,Non-profit,2017,33.7616,-89.80424
Baptist Health Services Group,BMH - Calhoun,251331,MS,Mississippi,Calhoun County,Calhoun City,38916,Non-profit,2017,33.81439,-89.35214
Baptist Health Services Group,Tallahatchie General Hospital,251304,MS,Mississippi,Tallahatchie County,Charleston,38921,Non-profit,2017,33.98139,-90.14856
Baptist Health Services Group,Yalobusha General Hospital,250061,MS,Mississippi,Yalobusha County,Water Valley,38965,Non-profit,2017,34.13565,-89.60007
Baptist Health Services Group,Noxubee General Hospital,251307,MS,Mississippi,Noxubee County,Macon,39341,Non-profit,2017,33.10052,-88.56202
Baptist Health Services Group,BMH - Golden Triangle,250100,MS,Mississippi,Lowndes County,Columbus,39705,Non-profit,2017,33.58606,-88.43573
Baptist Health Services Group,Pioneer Community Hospital of Aberdeen (Monroe Regional Hospital),251302,MS,Mississippi,Monroe County,Aberdeen,39730,Non-profit,2017,33.84179,-88.56421
Baptist Health Services Group,Pemiscot Memorial Hospital,260070,MO,Missouri,Pemiscot County,Hayti,63851,Non-profit,2017,36.25888,-89.71726
Baptist Health Services Group,Great River Medical Center,40069,AR,Arkansas,Mississippi County,Blytheville,72315,Non-profit,2017,35.90486,-89.90133
Baptist Health Services Group,Forrest City Medical Center,40019,AR,Arkansas,St. Francis County,Forrest City,72335,Non-profit,2017,34.9913,-90.75671
Baptist Health Services Group,SMC Regional Medical Center,41316,AR,Arkansas,Mississippi County,Osceola,72370,Non-profit,2017,35.68547,-90.10121
Baptist Health Services Group,Cross Ridge Community Hospital,41307,AR,Arkansas,Cross County,Wynne,72396,Non-profit,2017,35.23114,-90.82297
Baptist Health Services Group,NEA Baptist Memorial Hospital,40118,AR,Arkansas,Craighead County,Jonesboro,72401,Non-profit,2017,35.87894,-90.66057
Carroll County Memorial Hospital,Carroll County Memorial Hospital,261332,MO,Missouri,Carroll County,Carrollton,64633,Non-profit,2018,39.35829,-93.4837
Catholic Health Initiatives,Saint Clare's Hospital - Sussex,blank,NJ,New Jersey,Sussex County,Sussex,7461,Non-profit,Future Prospects: 2020,41.241,-74.60649
Catholic Health Initiatives,Saint Clare's Hospital - Denville,blank,NJ,New Jersey,Morris County,Denville,7834,Non-profit,Future Prospects: 2020,40.88845,-74.48651
Catholic Health Initiatives,The Berkshire Pavilion,blank,PA,Pennsylvania,Berks County,Reading,19601,Non-profit,Future Prospects: 2020,40.35261,-75.94104
Catholic Health Initiatives,Saint Joseph Medical Center,blank,PA,Pennsylvania,Berks County,Reading,19605,Non-profit,Future Prospects: 2020,40.39828,-75.94363
Catholic Health Initiatives,Saint Joseph Medical Center,blank,MD,Maryland,Baltimore County,Towson,21204,Non-profit,Future Prospects: 2020,39.40258,-76.6326
Catholic Health Initiatives,Memorial Hospital,blank,TN,Tennessee,Hamilton County,Chattanooga,37404,Non-profit,Future Prospects: 2020,35.02794,-85.27869
Catholic Health Initiatives,Flaget Memorial Hospital,blank,KY,Kentucky,Nelson County,Bardstown,40004,Non-profit,Future Prospects: 2020,37.80452,-85.46497
Catholic Health Initiatives,Jewish Hospital Shelbyville,blank,KY,Kentucky,Shelby County,Shelbyville,40065,Non-profit,Future Prospects: 2020,38.21651,-85.20683
Catholic Health Initiatives,Jewish Hospital,blank,KY,Kentucky,Jefferson County,Louisville,40202,Non-profit,Future Prospects: 2020,38.25711,-85.75362
Catholic Health Initiatives,Saint Joseph Berea,blank,KY,Kentucky,Madison County,Berea,40403,Non-profit,Future Prospects: 2020,37.56945,-84.2712
Catholic Health Initiatives,Saint Joseph Hospital,blank,KY,Kentucky,Fayette County,Lexington,40504,Non-profit,Future Prospects: 2020,38.04172,-84.54154
Catholic Health Initiatives,Good Samaritan Hospital - Cincinnati,blank,OH,Ohio,Hamilton County,Cincinnati,45220,Non-profit,Future Prospects: 2020,39.14857,-84.52073
Catholic Health Initiatives,Mercy Medical Center - Des Moines,blank,IA,Iowa,Polk County,Des Moines,50314,Non-profit,Future Prospects: 2020,41.60539,-93.63127
Catholic Health Initiatives,Albany Area Hospital & Medical Center,blank,MN,Minnesota,Stearns County,Albany,56307,Non-profit,Future Prospects: 2020,45.62799,-94.58871
Catholic Health Initiatives,Saint Gabriel's Hospital,blank,MN,Minnesota,Morrison County,Little Falls,56345,Non-profit,Future Prospects: 2020,45.98881,-94.37486
Catholic Health Initiatives,Saint Joseph's Area Health Services,blank,MN,Minnesota,Hubbard County,Park Rapids,56470,Non-profit,Future Prospects: 2020,47.02292,-95.09814
Catholic Health Initiatives,Saint Francis Medical Center,blank,MN,Minnesota,Wilkin County,Breckenridge,56520,Non-profit,Future Prospects: 2020,46.28542,-96.50478
Catholic Health Initiatives,CHI LakeWood Health Center,blank,MN,Minnesota,Lake of the Woods County,Baudette,56623,Non-profit,Future Prospects: 2020,48.60056,-94.56999
Catholic Health Initiatives,Gettysburg Medical Center,blank,SD,South Dakota,Potter County,Gettysburg,57442,Non-profit,Future Prospects: 2020,45.05455,-100.14458
Catholic Health Initiatives,Saint Mary's Healthcare Center,blank,SD,South Dakota,Hughes County,Pierre,57501,Non-profit,Future Prospects: 2020,44.52935,-100.30251
Catholic Health Initiatives,Lisbon Area Health Services,blank,ND,North Dakota,Ransom County,Lisbon,58054,Non-profit,Future Prospects: 2020,46.42533,-97.66954
Catholic Health Initiatives,Mercy Hospital,blank,ND,North Dakota,Barnes County,Valley City,58072,Non-profit,Future Prospects: 2020,46.92569,-98.00688
Catholic Health Initiatives,Mercy Hospital,blank,ND,North Dakota,Ramsey County,Devils Lake,58301,Non-profit,Future Prospects: 2020,48.13153,-98.87382
Catholic Health Initiatives,Carrington Health Center,blank,ND,North Dakota,Foster County,Carrington,58421,Non-profit,Future Prospects: 2020,47.44198,-99.06889
Catholic Health Initiatives,Oakes Community Hospital,blank,ND,North Dakota,Dickey County,Oakes,58474,Non-profit,Future Prospects: 2020,46.09558,-98.13353
Catholic Health Initiatives,Saint Joseph's Hospital & Health Center,blank,ND,North Dakota,Stark County,Dickinson,58601,Non-profit,Future Prospects: 2020,46.9159,-102.83435
Catholic Health Initiatives,Mercy Medical Center,blank,ND,North Dakota,Williams County,Williston,58801,Non-profit,Future Prospects: 2020,48.2131,-103.75325
Catholic Health Initiatives,St. Rose Ambulatory & Surgery Center,blank,KS,Kansas,Barton County,Great Bend,67530,Non-profit,Future Prospects: 2020,38.35287,-98.79363
Catholic Health Initiatives,Saint Catherine Hospital,blank,KS,Kansas,Finney County,Garden City,67846,Non-profit,Future Prospects: 2020,38.03484,-100.76704
Catholic Health Initiatives,Saint Vincent Morrilton,blank,AR,Arkansas,Conway County,Morrilton,72110,Non-profit,Future Prospects: 2020,35.15468,-92.77548
Catholic Health Initiatives,Saint Vincent Medical Center North,blank,AR,Arkansas,Pulaski County,Sherwood,72120,Non-profit,Future Prospects: 2020,34.89895,-92.2411
Catholic Health Initiatives,Saint Vincent Infirmary Medical Center,blank,AR,Arkansas,Pulaski County,Little Rock,72205,Non-profit,Future Prospects: 2020,34.7503,-92.35024
Catholic Health Initiatives,Saint Anthony North Hospital,blank,CO,Colorado,Broomfield County,Westminster,80023,Non-profit,Future Prospects: 2020,39.97242,-105.01094
Catholic Health Initiatives,Mercy Medical Center,blank,OR,Oregon,Douglas County,Roseburg,97471,Non-profit,Future Prospects: 2020,43.22015,-123.47587
Catholic Health Initiatives,Saint Anthony Hospital,blank,OR,Oregon,Umatilla County,Pendleton,97801,Non-profit,Future Prospects: 2020,45.6682,-118.81572
CHI Franciscan Health,Gig Harbor Same Day Surgery Center,–,WA,Washington,Pierce County,Gig Harbor,98335,Non-profit,2011-2016,47.29895,-122.62392
CHI Franciscan Health,Harrison Medical Center Bremerton,500039,WA,Washington,Kitsap County,Bremerton,98310,Non-profit,2011-2016,47.59269,-122.623
CHI Franciscan Health,Highline Medical Center,500011,WA,Washington,King County,Burien,98166,Non-profit,2011-2016,47.45281,-122.3501
CHI Franciscan Health,St. Anthony Hospital,500151,WA,Washington,Pierce County,Gig Harbor,98332,Non-profit,2011-2016,47.365,-122.59887
CHI Franciscan Health,St. Clare Hospital,500021,WA,Washington,Pierce County,Lakewood,98499,Non-profit,2011-2016,47.1667,-122.50703
CHI Franciscan Health,St. Elizabeth Hospital,501335,WA,Washington,King County,Enumclaw,98022,Non-profit,2011-2016,47.15033,-121.65485
CHI Franciscan Health,St. Francis Hospital,500141,WA,Washington,King County,Federal Way,98003,Non-profit,2011-2016,47.30513,-122.31508
CHI Franciscan Health,St. Joseph Hospital,500108,WA,Washington,Pierce County,Tacoma,98405,Non-profit,2011-2016,47.24581,-122.467
CHI Health Nebraska/Iowa,CHI Health Mercy Corning,161304,IA,Iowa,Adams County,Corning,50841,Non-profit,2017,41.00973,-94.76344
CHI Health Nebraska/Iowa,CHI Health Mercy Council Bluffs,160028,IA,Iowa,Pottawattamie County,Council Bluffs,51503,Non-profit,2017,41.23202,-95.77811
CHI Health Nebraska/Iowa,CHI Health Missouri Valley,161309,IA,Iowa,Harrison County,Missouri Valley,51555,Non-profit,2017,41.55841,-95.91921
CHI Health Nebraska/Iowa,CHI Health Midlands,280105,NE,Nebraska,Sarpy County,Papillion,68046,Non-profit,2017,41.12489,-96.05946
CHI Health Nebraska/Iowa,CHI Health Immanuel,280081,NE,Nebraska,Douglas County,Omaha,68122,Non-profit,2017,41.36821,-96.05113
CHI Health Nebraska/Iowa,CHI Health Lakeside,280130,NE,Nebraska,Douglas County,Omaha,68130,Non-profit,2017,41.23424,-96.19589
CHI Health Nebraska/Iowa,CHI Health Creighton University Medical Center - University Campus,280060,NE,Nebraska,Douglas County,Omaha,68131,Non-profit,2017,41.2645,-95.96451
CHI Health Nebraska/Iowa,CHI Health St. Mary's,281342,NE,Nebraska,Otoe County,Nebraska City,68410,Non-profit,2017,40.6375,-95.88976
CHI Health Nebraska/Iowa,Saint Mary's Community Hospital,281342,NE,Nebraska,Otoe County,Nebraska City,68410,Non-profit,2017,40.6375,-95.87976
CHI Health Nebraska/Iowa,CHI Health St. Elizabeth,280020,NE,Nebraska,Lancaster County,Lincoln,68510,Non-profit,2017,40.80653,-96.64096
CHI Health Nebraska/Iowa,Saint Elizabeth Regional Medical Center,–,NE,Nebraska,Lancaster County,Lincoln,68510,Non-profit,2017,40.80653,-96.63096
CHI Health Nebraska/Iowa,CHI Health Nebraska Heart,280128,NE,Nebraska,Lancaster County,Lincoln,68526,Non-profit,2017,40.73235,-96.58867
CHI Health Nebraska/Iowa,Nebraska Heart Hospital,280128,NE,Nebraska,Lancaster County,Lincoln,68526,Non-profit,2017,40.73235,-96.57867
CHI Health Nebraska/Iowa,CHI Health Schuyler,281323,NE,Nebraska,Colfax County,Schuyler,68661,Non-profit,2017,41.49314,-97.08363
CHI Health Nebraska/Iowa,CHI Health Plainview,281346,NE,Nebraska,Pierce County,Plainview,68769,Non-profit,2017,42.32227,-97.81212
CHI Health Nebraska/Iowa,CHI Health St. Francis,280023,NE,Nebraska,Hall County,Grand Island,68803,Non-profit,2017,40.95492,-98.42022
CHI Health Nebraska/Iowa,Saint Francis Medical Center,–,NE,Nebraska,Hall County,Grand Island,68803,Non-profit,2017,40.95492,-98.41022
CHI Health Nebraska/Iowa,CHI Health Good Samaritan,280009,NE,Nebraska,Buffalo County,Kearney,68847,Non-profit,2017,40.75891,-99.03072
CHI Health Nebraska/Iowa,Good Samaritan Hospital,–,NE,Nebraska,Buffalo County,Kearney,68847,Non-profit,2017,40.75891,-99.02072
CHI Texas Division,Memorial Lufkin & Memorial Specialty Hospitals,450211,TX,Texas,Angelina County,Lufkin,75904,Non-profit,2018,31.33969,-94.82673
CHI Texas Division,CHI St. Luke's Health Memorial San Augustine,451360,TX,Texas,San Augustine County,San Augustine,75972,Non-profit,2018,31.49499,-94.12708
CHI Texas Division,Burleson Hospital ,–,TX,Texas,Johnson County,Burleson,76028,Non-profit,2018,32.52605,-97.30317
CHI Texas Division,Baylor College of Medicine,–,TX,Texas,Harris County,Houston,77030,Non-profit,2017,29.71062013,-95.4051
CHI Texas Division,Baylor St. Luke's Medical Center,450193,TX,Texas,Harris County,Houston,77030,Non-profit,2017,29.70195987,-95.4051
CHI Texas Division,CHI St. Luke's Health - The Vintage Hospital,670075,TX,Texas,Harris County,Houston,77070,Non-profit,2017,29.97776,-95.57315
CHI Texas Division,CHI St. Luke's Health Memorial Livingston,450395,TX,Texas,Polk County,Livingston,77351,Non-profit,2018,30.7127,-94.82192
CHI Texas Division,CHI St. Luke's Health–The Woodlands Hospital,450862,TX,Texas,Montgomery County,The Woodlands,77384,Non-profit,2017,30.23494,-95.49526
CHI Texas Division,Springwoods Village Hospital ,77389,TX,Texas,Harris County,Spring,77389,Non-profit,2017,30.11516,-95.50749
CHI Texas Division,Bellville Hospital,450253,TX,Texas,Austin County,Belville,77418,Non-profit,2018,29.97879,-96.25057
CHI Texas Division,CHI St. Luke's Health - Sugar Land Hospital,670053,TX,Texas,Fort Bend County,Sugar Land,77478,Non-profit,2017,29.61964,-95.60701
CHI Texas Division,CHI St. Luke's Health - Patients Medical Center,670031,TX,Texas,Harris County,Pasadena,77505,Non-profit,2017,29.64608,-95.13826
CHI Texas Division,Brazosport Health System,450072,TX,Texas,Brazoria County,Lake Jackson,77566,Non-profit,2017,29.05023,-95.47549
CHI Texas Division,CHI St. Josepth Regional Health Center,450011,TX,Texas,Brazos County,Bryan,77802,Non-profit,2018,30.66126,-96.32265
CHI Texas Division,Madison St. Joseph Health Center,451316,TX,Texas,Madison County,Madisonville,77864,Non-profit,2018,30.95416,-95.90559
CHI Texas Division,Grimes Hospital,451322,TX,Texas,Grimes County, Navasota,77868,Non-profit,2018,30.3686,-96.0616
CHS,Moses Taylor Hospital,390119,PA,Pennsylvania,Lackawanna,Scranton,18503,For profit,2019,41.41128,-75.66769
CHS,Regional Hospital of Scranton,390237,PA,Pennsylvania,Lackawanna,Scranton,18510,For profit,2019,41.4073,-75.63681
CHS,Berwick Hospital Center,390072,PA,Pennsylvania,Columbia,Berwick,18603,For profit,2019,41.08294,-76.24886
CHS,Tyler Memorial Hospital,390192,PA,Pennsylvania,Wyoming,Tunkhannock,18657,For profit,2019,41.52524,-75.95414
CHS,Wilkes-Barre General Hospital,390137,PA,Pennsylvania,Luzerne,Wilkes Barre,18702,For profit,2019,41.22083,-75.77366
CHS,First Hospital Wyoming Valley,394039,PA,Pennsylvania,Luzerne,Kingston,18704,For profit,2019,41.2766,-75.89463
CHS,Southside Regional Medical Center,490067,VA,Virginia,Dinwiddie,Petersburg,23805,For profit,2019,37.12899,-77.39781
CHS,Southern Virginia Regional Medical Center,490097,VA,Virginia,Greensville,Emporia,23847,For profit,2019,36.67043,-77.55067
CHS,Southampton Memorial Hospital,490092,VA,Virginia,Isle of Wight,Franklin,23851,For profit,2019,36.65546,-76.95391
CHS,Bluefield Regional Medical Center,510071,WV,West Virginia,Mercer,Bluefield,24701,For profit,2019,37.30095,-81.20655
CHS,Greenbrier Valley Medical Center,510002,WV,West Virginia,Greenbrier,Ronceverte,24970,For profit,2019,37.73129,-80.47891
CHS,Plateau Medical Center,511317,WV,West Virginia,Fayette,Oak Hill,25901,For profit,2019,37.94835,-81.11278
CHS,Lake Norman Regional Medical Center,340129,NC,North Carolina,Iredell,Mooresville,28117,For profit,2019,35.57217,-80.89562
CHS,Davis Regional Medical Center,340144,NC,North Carolina,Iredell,Statesville,28625,For profit,2019,35.86506,-80.88572
CHS,East Georgia Regional Medical Center,110075,GA,Georgia,Bulloch,Statesboro,30458,For profit,2019,32.39865,-81.82559
CHS,Shands Lake Shore Regional Medical Center,100102,FL,Florida,Columbia,Lake City,32055,For profit,2019,30.27019,-82.62038
CHS,Shands Live Oak Regional Medical Center,101301,FL,Florida,Suwannee,Live Oak,32064,For profit,2019,30.29566,-82.98443
CHS,Shands Starke Regional Medical Center,101310,FL,Florida,Bradford,Starke,32091,For profit,2019,29.93119,-82.12548
CHS,North Okaloosa Medical Center,100122,FL,Florida,Okaloosa,Crestview,32539,For profit,2019,30.77476,-86.46308
CHS,Santa Rosa Medical Center,100124,FL,Florida,Santa Rosa,Milton,32570,For profit,2019,30.80758,-86.9717
CHS,Lower Keys Medical Center,100150,FL,Florida,Monroe,Key West,33040,For profit,2019,24.58549,-81.75449
CHS,Bayfront Health St. Petersburg,100032,FL,Florida,Pinellas,Saint Petersburg,33701,For profit,2019,27.77041,-82.6357
CHS,Bayfront Health Punta Gorda,100047,FL,Florida,Charlotte,Punta Gorda,33950,For profit,2019,26.9022,-82.04419
CHS,Bayfront Health Port Charlotte,100077,FL,Florida,Charlotte,Port Charlotte,33952,For profit,2019,26.99012,-82.1022
CHS,Physicians Regional Healthcare System - Collier,–,FL,Florida,Collier,Naples,34114,For profit,2019,25.96746,-81.55034
CHS,Physicians Regional Healthcare System - Pine Ridge,100286,FL,Florida,Collier,Naples,34119,For profit,2019,26.26653,-81.71461
CHS,Venice Regional Bayfront Health,100070,FL,Florida,Sarasota,Venice,34285,For profit,2019,27.09153,-82.43399
CHS,Bayfront Health Seven Rivers,100249,FL,Florida,Citrus,Crystal River,34428,For profit,2019,28.96087,-82.63392
CHS,Bayfront Health Brooksville,100071,FL,Florida,Hernando,Brooksville,34601,For profit,2019,28.59027,-82.36481
CHS,Bayfront Health Spring Hill,–,FL,Florida,Hernando,Spring Hill,34609,For profit,2019,28.47933,-82.5082
CHS,St Cloud Regional Medical Center,100302,FL,Florida,Osceola,Saint Cloud,34769,For profit,2019,28.2451,-81.29113
CHS,Grandview Medical Center,10104,AL,Alabama,Jefferson,Birmingham,35243,For profit,2019,33.44278,-86.73994
CHS,Crestwood Medical Center,10131,AL,Alabama,Madison,Huntsville,35801,For profit,2019,34.72465,-86.56222
CHS,Gadsden Regional Medical Center,10040,AL,Alabama,Etowah,Gadsden,35903,For profit,2019,34.02708,-85.86093
CHS,Flowers Hospital,10055,AL,Alabama,Houston,Dothan,36305,For profit,2019,31.20136,-85.49807
CHS,Medical Center Enterprise,10049,AL,Alabama,Coffee,Enterprise,36330,For profit,2019,31.30615,-85.8632
CHS,South Baldwin Regional Medical Center,10083,AL,Alabama,Baldwin,Foley,36535,For profit,2019,30.38545,-87.72618
CHS,Tennova Healthcare - Clarksville,440035,TN,Tennessee,Montgomery,Clarksville,37040,For profit,2019,36.52333,-87.33337
CHS,Tennova Healthcare - Shelbyville,440137,TN,Tennessee,Bedford,Shelbyville,37160,For profit,2019,35.46396,-86.48382
CHS,Tennova Healthcare - Cleveland,440185,TN,Tennessee,Bradley,Cleveland,37311,For profit,2019,35.11286,-84.92865
CHS,Tennova Healthcare - Harton,440144,TN,Tennessee,Coffee,Tullahoma,37388,For profit,2019,35.34685,-86.21997
CHS,Tennova - Jefferson Memorial Hospital,440056,TN,Tennessee,Jefferson,Jefferson City,37760,For profit,2019,36.11059,-83.46447
CHS,Tennova - LaFollette Medical Center,440033,TN,Tennessee,Campbell,La Follette,37766,For profit,2019,36.398,-84.08638
CHS,Tennova - Newport Medical Center,440153,TN,Tennessee,Cocke,Newport,37821,For profit,2019,35.97621,-83.18983
CHS,Tennova - North Knoxville Medical Center,blank,TN,Tennessee,Knox,Powell,37849,For profit,2019,36.0585,-84.04316
CHS,Tennova - Turkey Creek Medical Center,440226,TN,Tennessee,Knox,Knoxville,37934,For profit,2019,35.87287,-84.17913
CHS,Northwest Mississippi Medical Center,250042,MS,Mississippi,Coahoma,Clarksdale,38614,For profit,2019,34.15577,-90.59906
CHS,Merit Health Rankin,250096,MS,Mississippi,Rankin,Brandon,39042,For profit,2019,32.21202,-89.88862
CHS,Merit Health Madison,250038,MS,Mississippi,Madison,Canton,39046,For profit,2019,32.63195,-89.98542
CHS,Merit Health Natchez,250084,MS,Mississippi,Adams,Natchez,39120,For profit,2019,31.51024,-91.35405
CHS,Merit Health River Region,250031,MS,Mississippi,Warren,Vicksburg,39183,For profit,2019,32.45229,-90.80657
CHS,Merit Health Central,250072,MS,Mississippi,Hinds,Jackson,39204,For profit,2019,32.26814,-90.22691
CHS,Merit Health River Oaks,250138,MS,Mississippi,Rankin,Flowood,39232,For profit,2019,32.32977,-90.09661
CHS,Merit Health Woman's Hospital,250136,MS,Mississippi,Rankin,Flowood,39232,For profit,2019,32.32977,-90.08661
CHS,Merit Health Wesley,250094,MS,Mississippi,Lamar,Hattiesburg,39402,For profit,2019,31.33371,-89.41261
CHS,Merit Health Biloxi,250007,MS,Mississippi,Harrison,Biloxi,39530,For profit,2019,30.32882,-88.95779
CHS,La Porte Hospital,150006,IN,Indiana,LaPorte,La Porte,46350,For profit,2019,41.60735,-86.72158
CHS,Porter Hospital,150035,IN,Indiana,Porter,Valparaiso,46383,For profit,2019,41.45914,-87.00339
CHS,Starke Hospital,150102,IN,Indiana,Starke,Knox,46534,For profit,2019,41.28578,-86.61667
CHS,Kosciusko Community Hospital,150133,IN,Indiana,Kosciusko,Warsaw,46580,For profit,2019,41.20772,-85.87107
CHS,Bluffton Regional Medical Center,150075,IN,Indiana,Wells,Bluffton,46714,For profit,2019,40.71846,-85.17147
CHS,St. Joseph Hospital,150047,IN,Indiana,Allen,Fort Wayne,46802,For profit,2019,41.06794,-85.16312
CHS,Lutheran Hospital,150017,IN,Indiana,Allen,Fort Wayne,46804,For profit,2019,41.05556013,-85.24312
CHS,Lutheran Rehabilitation Hospital,blank,IN,Indiana,Allen,Fort Wayne,46804,For profit,2019,41.04689987,-85.24312
CHS,The Orthopedic Hospital,150168,IN,Indiana,Allen,Fort Wayne,46804,For profit,2019,41.05123,-85.23562
CHS,Dupont Hospital,150150,IN,Indiana,Allen,Fort Wayne,46825,For profit,2019,41.15301,-85.12541
CHS,Dukes Memorial Hospital,151318,IN,Indiana,Miami,Peru,46970,For profit,2019,40.76013,-86.06308
CHS,Northeast Regional Medical Center,260022,MO,Missouri,Adair,Kirksville,63501,For profit,2019,40.16727,-92.59033
CHS,Poplar Bluff Regional Medical Center,260119,MO,Missouri,Butler,Poplar Bluff,63901,For profit,2019,36.76635,-90.46267
CHS,Moberly Regional Medical Center,260074,MO,Missouri,Randolph,Moberly,65270,For profit,2019,39.41515,-92.40279
CHS,Northern Louisiana Medical Center,190086,LA,Louisiana,Lincoln,Ruston,71270,For profit,2019,32.49458,-92.63933
CHS,Medical Center of South Arkansas,40088,AR,Arkansas,Union,El Dorado,71730,For profit,2019,33.20062,-92.62907
CHS,Northwest Health Physicians' Specialty Hospital,40152,AR,Arkansas,Washington,Fayetteville,72703,For profit,2019,36.11505,-94.05393
CHS,Willow Creek Women's Hospital,40022,AR,Arkansas,Washington,Fayetteville,72704,For profit,2019,36.10359,-94.29665
CHS,Northwest Medical Center - Bentonville,–,AR,Arkansas,Benton,Bentonville,72712,For profit,2019,36.35041,-94.25426
CHS,Siloam Springs Regional Hospital,40001,AR,Arkansas,Benton,Siloam Springs,72761,For profit,2019,36.17017,-94.45816
CHS,Northwest Medical Center - Springdale,–,AR,Arkansas,Washington,Springdale,72764,For profit,2019,36.17838,-94.05255
CHS,AllianceHealth midwest,370094,OK,Oklahoma,Oklahoma,Oklahoma City,73110,For profit,2019,35.46116,-97.39766
CHS,AllianceHealth Madill,371326,OK,Oklahoma,Marshall,Madill,73446,For profit,2019,34.08956,-96.77795
CHS,AllianceHealth Clinton,370029,OK,Oklahoma,Custer,Clinton,73601,For profit,2019,35.48715,-98.96583
CHS,AllianceHealth Woodward,370002,OK,Oklahoma,Woodward,Woodward,73801,For profit,2019,36.47878,-99.43646
CHS,AllianceHealth Ponca City,370006,OK,Oklahoma,Kay,Ponca City,74601,For profit,2019,36.70063,-97.1462
CHS,AllianceHealth Durant,370014,OK,Oklahoma,Bryan,Durant,74701,For profit,2019,34.00738,-96.3782
CHS,AllianceHealth Seminole,370229,OK,Oklahoma,Seminole,Seminole,74868,For profit,2019,35.2672,-96.64619
CHS,Navarro Regional Hospital,450447,TX,Texas,Navarro,Corsicana,75110,For profit,2019,32.08693,-96.52879
CHS,Longview Regional Medical Center,450702,TX,Texas,Gregg,Longview,75605,For profit,2019,32.58258,-94.72065
CHS,Woodland Heights Medical Center,450484,TX,Texas,Angelina,Lufkin,75904,For profit,2019,31.33969,-94.81673
CHS,Lake Granbury Medical Center,450596,TX,Texas,Hood,Granbury,76048,For profit,2019,32.42318,-97.80877
CHS,Hill Regional Hospital,450192,TX,Texas,Hill,Hillsboro,76645,For profit,2019,32.02172,-97.1336
CHS,Brownwood Regional Medical Center,450587,TX,Texas,Brown,Brownwood,76801,For profit,2019,31.7425,-99.03991
CHS,San Angelo Community Medical Center,450340,TX,Texas,Tom Green,San Angelo,76904,For profit,2019,31.28359,-100.39453
CHS,DeTar Healthcare System,450147,TX,Texas,Victoria,Victoria,77901,For profit,2019,28.80493,-96.98473
CHS,Laredo Medical Center,450029,TX,Texas,Webb,Laredo,78041,For profit,2019,27.55417,-99.46337
CHS,Cedar Park Regional Medical Center,670043,TX,Texas,Williamson,Cedar Park,78613,For profit,2019,30.50395,-97.81963
CHS,Abilene Regional Medical Center,450558,TX,Texas,Taylor,Abilene,79606,For profit,2019,32.36095,-99.82696
CHS,Northwest Medical Center,30085,AZ,Arizona,Pima,Tucson,85741,For profit,2019,32.33731,-111.03944
CHS,Oro Valley Hospital,30114,AZ,Arizona,Pima,Tucson,85755,For profit,2019,32.46826,-110.98146
CHS,Western Arizona Regional Medical Center,30101,AZ,Arizona,Mohave,Bullhead City,86442,For profit,2019,35.08682,-114.56705
CHS,MountainView Regional Medical Center,320085,NM,New Mexico,DoÃ±a Ana,Las Cruces,88011,For profit,2019,32.31585,-106.6437
CHS,Eastern New Mexico Medical Center,320006,NM,New Mexico,Chaves,Roswell,88201,For profit,2019,33.63973,-104.37994
CHS,Carlsbad Medical Center,320063,NM,New Mexico,Eddy,Carlsbad,88220,For profit,2019,32.29637,-104.41327
CHS,Lea Regional Medical Center,320065,NM,New Mexico,Lea,Hobbs,88240,For profit,2019,32.7078,-103.47152
CHS,Mat-Su Regional Medical Center,20006,AK,Alaska,Matanuska-Susitna,Palmer,99645,For profit,2019,61.6303,-148.98707
Dignity Health,Saint Joseph's Behavioral Health Center,blank,CA,California,San Joaquin County,Stockton,95204,Non-profit,Future Prospects: 2020,37.97388,-121.31987
Dignity Health,Saint Joseph's Medical Center,blank,CA,California,San Joaquin County,Stockton,95204,Non-profit,Future Prospects: 2020,37.97388,-121.31987
Dignity Health,Saint Joseph's Hospital and Medical Center,blank,AZ,Arizona,Maricopa County,Phoenix,85013,Non-profit,Future Prospects: 2020,33.51007,-112.08287
Dignity Health,Chandler Regional Medical Center,blank,AZ,Arizona,Maricopa County,Chandler,85224,Non-profit,Future Prospects: 2020,33.32366,-111.87644
Dignity Health,Mercy Gilbert Medical Center,blank,AZ,Arizona,Maricopa County,Gilbert,85297,Non-profit,Future Prospects: 2020,33.2778,-111.7335
Dignity Health,Saint Rose Dominican Hospitals - Rose de Lima Campus,blank,NV,Nevada,Clark County,Henderson,89015,Non-profit,Future Prospects: 2020,36.03923,-114.92817
Dignity Health,Saint Rose Dominican Hospitals - Siena Campus,blank,NV,Nevada,Clark County,Henderson,89052,Non-profit,Future Prospects: 2020,35.95509,-115.05672
Dignity Health,Saint Rose Dominican Hospital - San Martin Campus,blank,NV,Nevada,Clark County,Las Vegas,89113,Non-profit,Future Prospects: 2020,36.0611,-115.26348
Dignity Health,Saint Mary's Regional Medical Center,blank,NV,Nevada,Washoe County,Reno,89503,Non-profit,Future Prospects: 2020,39.54078,-119.83992
Dignity Health,California Hospital Medical Center,blank,CA,California,Los Angeles County,Los Angeles,90015,Non-profit,Future Prospects: 2020,34.03939,-118.26645
Dignity Health,Saint Mary Medical Center,blank,CA,California,Los Angeles County,Long Beach,90813,Non-profit,Future Prospects: 2020,33.78237,-118.19684
Dignity Health,Glendale Memorial Hospital & Health Center,blank,CA,California,Los Angeles County,Glendale,91204,Non-profit,Future Prospects: 2020,34.13636,-118.26098
Dignity Health,Northridge Hospital Medical Center,blank,CA,California,Los Angeles County,Northridge,91325,Non-profit,Future Prospects: 2020,34.23602,-118.51759
Dignity Health,Saint Bernardine Medical Center,blank,CA,California,San Bernardino County,San Bernardino,92404,Non-profit,Future Prospects: 2020,34.17837,-117.25147
Dignity Health,Community Hospital of San Bernardino,blank,CA,California,San Bernardino County,San Bernardino,92411,Non-profit,Future Prospects: 2020,34.12211,-117.3203
Dignity Health,Saint John's Pleasant Valley Hospital,blank,CA,California,Ventura County,Camarillo,93010,Non-profit,Future Prospects: 2020,34.22983,-119.07464
Dignity Health,Saint John's Regional Medical Center,blank,CA,California,Ventura County,Oxnard,93030,Non-profit,Future Prospects: 2020,34.20532,-119.17484
Dignity Health,Bakersfield Memorial Hospital,blank,CA,California,Kern County,Bakersfield,93301,Non-profit,Future Prospects: 2020,35.38451,-119.02582
Dignity Health,Mercy Hospitals of Bakersfield - Truxton Campus,blank,CA,California,Kern County,Bakersfield,93301,Non-profit,Future Prospects: 2020,35.38451,-119.01582
Dignity Health,French Hospital Medical Center,blank,CA,California,San Luis Obispo County,San Luis Obispo,93401,Non-profit,Future Prospects: 2020,35.24175,-120.61711
Dignity Health,Arroyo Grande Community Hospital,blank,CA,California,San Luis Obispo County,Arroyo Grande,93420,Non-profit,Future Prospects: 2020,35.16612,-120.46508
Dignity Health,Marian Regional Medical Center,blank,CA,California,Santa Barbara County,Santa Maria,93454,Non-profit,Future Prospects: 2020,34.93667,-120.23478
Dignity Health,Sequoia Hospital,blank,CA,California,San Mateo County,Redwood City,94062,Non-profit,Future Prospects: 2020,37.42135,-122.30714
Dignity Health,Saint Francis Memorial Hospital,blank,CA,California,San Francisco County,San Francisco,94109,Non-profit,Future Prospects: 2020,37.79521,-122.42221
Dignity Health,Saint Mary's Medical Center,blank,CA,California,San Francisco County,San Francisco,94117,Non-profit,Future Prospects: 2020,37.76975,-122.44823
Dignity Health,Dominican Hospital,blank,CA,California,Santa Cruz County,Santa Cruz,95065,Non-profit,Future Prospects: 2020,37.03149,-121.98333
Dignity Health,Mark Twain Saint Joseph's Hospital,blank,CA,California,Calaveras County,San Andreas,95249,Non-profit,Future Prospects: 2020,38.18985,-120.62657
Dignity Health,Mercy Medical Center Merced,blank,CA,California,Merced County,Merced,95340,Non-profit,Future Prospects: 2020,37.33905,-120.42426
Dignity Health,Oak Valley Hospital,blank,CA,California,Stanislaus County,Oakdale,95361,Non-profit,Future Prospects: 2020,37.78647,-120.75712
Dignity Health,Mercy San Juan Medical Center,blank,CA,California,Sacramento County,Carmichael,95608,Non-profit,Future Prospects: 2020,38.62585,-121.32828
Dignity Health,Mercy Hospital of Folsom,blank,CA,California,Sacramento County,Folsom,95630,Non-profit,Future Prospects: 2020,38.66707,-121.14176
Dignity Health,Woodland Healthcare,blank,CA,California,Yolo County,Woodland,95695,Non-profit,Future Prospects: 2020,38.6871,-121.85705
Dignity Health,Mercy General Hospital,blank,CA,California,Sacramento County,Sacramento,95819,Non-profit,Future Prospects: 2020,38.56965,-121.4397
Dignity Health,Methodist Hospital of Sacramento,blank,CA,California,Sacramento County,Sacramento,95823,Non-profit,Future Prospects: 2020,38.47408,-121.44347
Dignity Health,Sierra Nevada Memorial Hospital,blank,CA,California,Nevada County,Grass Valley,95945,Non-profit,Future Prospects: 2020,39.19509,-120.977
Dignity Health,Mercy Medical Center Redding,blank,CA,California,Shasta County,Redding,96001,Non-profit,Future Prospects: 2020,40.59649,-122.46005
Dignity Health,Mercy Medical Center Mount Shasta,blank,CA,California,Siskiyou County,Mount Shasta,96067,Non-profit,Future Prospects: 2020,41.30912,-122.36782
Dignity Health,Saint Elizabeth Community Hospital,blank,CA,California,Tehama County,Red Bluff,96080,Non-profit,Future Prospects: 2020,40.16516,-122.38167
Eastside Health Alliance,Concierge Care,–,WA,Washington,King,Bellevue,98004,Non-profit,2019,47.62317013,-122.20345
Eastside Health Alliance,Downtown Bellevue Primary Care Clinic,–,WA,Washington,King,Bellevue,98004,Non-profit,2019,47.62317013,-122.20845
Eastside Health Alliance,Emergency Medical Room,–,WA,Washington,King,Bellevue,98004,Non-profit,2019,47.61884,-122.21095
Eastside Health Alliance,Hospital Campus Primary Care,–,WA,Washington,King,Bellevue,98004,Non-profit,2019,47.61450987,-122.20845
Eastside Health Alliance,Lake Hills Primary Care,–,WA,Washington,King,Bellevue,98007,Non-profit,2019,47.61446,-122.14381
Eastside Health Alliance,Senior Health Clinic Primary Care,–,WA,Washington,King,Bellevue,98004,Non-profit,2019,47.61884,-122.20095
Emory Healthcare,Emory University Orthopaedics & Spine Hospital,–,GA,Georgia,DeKalb County,,30084,Non-profit,2011-2016,33.85431,-84.216
Emory Healthcare,Emory Johns Creek Hospital,110230,GA,Georgia,Fulton County,,30097,Non-profit,2011-2016,34.02595,-84.14704
Emory Healthcare,Emory University Hospital Midtown,110078,GA,Georgia,Fulton County,,30308,Non-profit,2011-2016,33.77121,-84.3831
Emory Healthcare,Emory Rehabilitation Hospital,113031,GA,Georgia,DeKalb County,,30322,Non-profit,2011-2016,33.79476,-84.33082
Emory Healthcare,Emory University Hospital,110010,GA,Georgia,DeKalb County,,30322,Non-profit,2011-2016,33.79476,-84.32082
Emory Healthcare,Emory University Hospital at Wesley Woods,110203,GA,Georgia,DeKalb County,,30329,Non-profit,2011-2016,33.82695,-84.32297
Emory Healthcare,Emory Saint Joseph's Hospital,110082,GA,Georgia,Fulton County,Atlanta,30342,Non-profit,2011-2016,33.88205,-84.37464
EvergreenHealth,EvergreenHealth Kirkland,500124,WA,Washington,King County,Kirkland,98034,Non-profit,2011-2016,47.71578,-122.21582
EvergreenHealth,EvergreenHealth Monroe,500084,WA,Washington,Snohomish County,Monroe,98272,Non-profit,2011-2016,47.8493,-121.88519
"HCA - Nashville, TN",Centennial Medical Center,blank,TN,Tennessee,Davidson County,Nashville,37203,For profit,Future Prospects: 2020,36.14934,-86.79034
"HCA - Nashville, TN",Parkland Medical Center,blank,NH,New Hampshire,Rockingham County,Derry,3038,For profit,Future Prospects: 2020,42.88877,-71.27988
"HCA - Nashville, TN",Portsmouth Regional Hospital,blank,NH,New Hampshire,Rockingham County,Portsmouth,3801,For profit,Future Prospects: 2020,43.07292,-70.8052
"HCA - Nashville, TN",Reston Hospital Center,blank,VA,Virginia,Fairfax County,Reston,20190,For profit,Future Prospects: 2020,38.95978,-77.33687
"HCA - Nashville, TN",Dominion Hospital,blank,VA,Virginia,Falls Church City,Falls Church,22044,For profit,Future Prospects: 2020,38.85971,-77.15559
"HCA - Nashville, TN",CJW Medical Center - Chippenham Campus,blank,VA,Virginia,Richmond city,Richmond,23225,For profit,Future Prospects: 2020,37.51843,-77.51105
"HCA - Nashville, TN",Henrico Doctors' Hospital - Forest Campus,blank,VA,Virginia,Henrico County,Richmond,23229,For profit,Future Prospects: 2020,37.58728,-77.57281
"HCA - Nashville, TN",John Randolph Medical Center,blank,VA,Virginia,Hopewell city,Hopewell,23860,For profit,Future Prospects: 2020,37.27984,-77.2173
"HCA - Nashville, TN",LewisGale Hospital at Montgomery,blank,VA,Virginia,Montgomery County,Blacksburg,24060,For profit,Future Prospects: 2020,37.25676,-80.42107
"HCA - Nashville, TN",LewisGale Medical Center,blank,VA,Virginia,Salem city,Salem,24153,For profit,Future Prospects: 2020,37.30012,-80.1106
"HCA - Nashville, TN",LewisGale Hospital at Pulaski,blank,VA,Virginia,Pulaski County,Pulaski,24301,For profit,Future Prospects: 2020,37.06048,-80.79978
"HCA - Nashville, TN",LewisGale Hospital at Alleghany,blank,VA,Virginia,Alleghany County,Low Moor,24457,For profit,Future Prospects: 2020,37.77063,-79.92017
"HCA - Nashville, TN",Trident Medical Center,blank,SC,South Carolina,Charleston County,Charleston,29406,For profit,Future Prospects: 2020,32.9353,-80.03261
"HCA - Nashville, TN",Colleton Medical Center,blank,SC,South Carolina,Colleton County,Walterboro,29488,For profit,Future Prospects: 2020,32.90658,-80.67209
"HCA - Nashville, TN",Grand Strand Regional Medical Center,blank,SC,South Carolina,Horry County,Myrtle Beach,29572,For profit,Future Prospects: 2020,33.76917,-78.78915
"HCA - Nashville, TN",Eastside Medical Center,blank,GA,Georgia,Gwinnett County,Snellville,30078,For profit,Future Prospects: 2020,33.86165,-84.01787
"HCA - Nashville, TN",Cartersville Medical Center,blank,GA,Georgia,Bartow County,Cartersville,30120,For profit,Future Prospects: 2020,34.16708,-84.85534
"HCA - Nashville, TN",Polk Medical Center,blank,GA,Georgia,Polk County,Cedartown,30125,For profit,Future Prospects: 2020,34.00204,-85.27502
"HCA - Nashville, TN",Redmond Regional Medical Center,blank,GA,Georgia,Floyd County,Rome,30165,For profit,Future Prospects: 2020,34.30358,-85.27154
"HCA - Nashville, TN",Doctors Hospital of Augusta,blank,GA,Georgia,Richmond County,Augusta,30909,For profit,Future Prospects: 2020,33.4717,-82.0834
"HCA - Nashville, TN",Fairview Park Hospital,blank,GA,Georgia,Laurens County,Dublin,31021,For profit,Future Prospects: 2020,32.49307,-82.93909
"HCA - Nashville, TN",Coliseum Psychiatric Center,blank,GA,Georgia,Bibb County,Macon,31201,For profit,Future Prospects: 2020,32.80946,-83.61684
"HCA - Nashville, TN",Coliseum Northside Hospital,blank,GA,Georgia,Bibb County,Macon,31210,For profit,Future Prospects: 2020,32.90485,-83.73572
"HCA - Nashville, TN",Coliseum Medical Center,blank,GA,Georgia,Bibb County,Macon,31217,For profit,Future Prospects: 2020,32.84493,-83.50636
"HCA - Nashville, TN",Lake City Medical Center,blank,FL,Florida,Columbia County,Lake City,32055,For profit,Future Prospects: 2020,30.27019,-82.63038
"HCA - Nashville, TN",Orange Park Medical Center,blank,FL,Florida,Clay County,Orange Park,32073,For profit,Future Prospects: 2020,30.17026,-81.73936
"HCA - Nashville, TN",Specialty Hospital of Jacksonville,blank,FL,Florida,Duval County,Jacksonville,32207,For profit,Future Prospects: 2020,30.29,-81.63997
"HCA - Nashville, TN",Memorial Hospital,blank,FL,Florida,Duval County,Jacksonville,32216,For profit,Future Prospects: 2020,35.02794,-85.28369
"HCA - Nashville, TN",Capital Regional Medical Center,blank,FL,Florida,Leon County,Tallahassee,32308,For profit,Future Prospects: 2020,30.47711,-84.22457
"HCA - Nashville, TN",Gulf Coast Medical Center,blank,FL,Florida,Bay County,Panama City,32405,For profit,Future Prospects: 2020,30.2004,-85.6679
"HCA - Nashville, TN",West Florida Hospital,blank,FL,Florida,Escambia County,Pensacola,32514,For profit,Future Prospects: 2020,30.53185,-87.22196
"HCA - Nashville, TN",Fort Walton Beach Medical Center,blank,FL,Florida,Okaloosa County,Fort Walton Beach,32547,For profit,Future Prospects: 2020,30.46868,-86.66717
"HCA - Nashville, TN",Twin Cities Hospital,blank,FL,Florida,Okaloosa County,Niceville,32578,For profit,Future Prospects: 2020,30.51024,-86.45223
"HCA - Nashville, TN",North Florida Regional Medical Center,blank,FL,Florida,Alachua County,Gainesville,32605,For profit,Future Prospects: 2020,29.6766,-82.37363
"HCA - Nashville, TN",Central Florida Regional Hospital,blank,FL,Florida,Seminole County,Sanford,32771,For profit,Future Prospects: 2020,28.8135,-81.32647
"HCA - Nashville, TN",Northwest Medical Center,blank,FL,Florida,Broward County,Margate,33063,For profit,Future Prospects: 2020,26.25012,-80.20883
"HCA - Nashville, TN",Mercy Hospital,blank,FL,Florida,Miami-Dade County,Miami,33133,For profit,Future Prospects: 2020,25.7298,-80.24319
"HCA - Nashville, TN",Kendall Regional Medical Center,blank,FL,Florida,Miami-Dade County,Miami,33175,For profit,Future Prospects: 2020,25.73402,-80.40677
"HCA - Nashville, TN",Aventura Hospital and Medical Center,blank,FL,Florida,Miami-Dade County,Aventura,33180,For profit,Future Prospects: 2020,25.96074,-80.14199
"HCA - Nashville, TN",Plantation General Hospital,blank,FL,Florida,Broward County,Plantation,33317,For profit,Future Prospects: 2020,26.1122,-80.2264
"HCA - Nashville, TN",University Hospital and Medical Center,blank,FL,Florida,Broward County,Tamarac,33321,For profit,Future Prospects: 2020,26.21204,-80.2696
"HCA - Nashville, TN",Westside Regional Medical Center,blank,FL,Florida,Broward County,Plantation,33324,For profit,Future Prospects: 2020,26.11236,-80.27416
"HCA - Nashville, TN",Columbia Hospital,blank,FL,Florida,Palm Beach County,West Palm Beach,33407,For profit,Future Prospects: 2020,26.75779,-80.09574
"HCA - Nashville, TN",JFK Medical Center,blank,FL,Florida,Palm Beach County,Atlantis,33462,For profit,Future Prospects: 2020,26.58055,-80.07352
"HCA - Nashville, TN",Palms West Hospital,blank,FL,Florida,Palm Beach County,Loxahatchee,33470,For profit,Future Prospects: 2020,26.72709,-80.32037
"HCA - Nashville, TN",Brandon Regional Hospital,blank,FL,Florida,Hillsborough County,Brandon,33511,For profit,Future Prospects: 2020,27.90985,-82.2946
"HCA - Nashville, TN",South Bay Hospital,blank,FL,Florida,Hillsborough County,Sun City Center,33573,For profit,Future Prospects: 2020,27.72364,-82.35938
"HCA - Nashville, TN",Northside Hospital & Tampa Bay Heart Institute,blank,FL,Florida,Pinellas County,Saint Petersburg,33709,For profit,Future Prospects: 2020,27.81714,-82.73058
"HCA - Nashville, TN",Saint Petersburg General Hospital,blank,FL,Florida,Pinellas County,Saint Petersburg,33710,For profit,Future Prospects: 2020,27.79012,-82.73041
"HCA - Nashville, TN",Edward White Hospital,blank,FL,Florida,Pinellas County,Saint Petersburg,33713,For profit,Future Prospects: 2020,27.78879,-82.67754
"HCA - Nashville, TN",Largo Medical Center,blank,FL,Florida,Pinellas County,Largo,33770,For profit,Future Prospects: 2020,27.91468,-82.80359
"HCA - Nashville, TN",Fawcett Memorial Hospital,blank,FL,Florida,Charlotte County,Port Charlotte,33952,For profit,Future Prospects: 2020,26.99012,-82.0922
"HCA - Nashville, TN",Blake Medical Center,blank,FL,Florida,Manatee County,Bradenton,34209,For profit,Future Prospects: 2020,27.49492,-82.64316
"HCA - Nashville, TN",Englewood Community Hospital,blank,FL,Florida,Sarasota County,Englewood,34223,For profit,Future Prospects: 2020,26.98035,-82.35198
"HCA - Nashville, TN",Doctors Hospital of Sarasota,blank,FL,Florida,Sarasota County,Sarasota,34233,For profit,Future Prospects: 2020,27.28375,-82.47299
"HCA - Nashville, TN",Ocala Regional Medical Center,blank,FL,Florida,Marion County,Ocala,34471,For profit,Future Prospects: 2020,29.16053,-82.12878
"HCA - Nashville, TN",Oak Hill Hospital,blank,FL,Florida,Hernando County,Brooksville,34613,For profit,Future Prospects: 2020,28.57453,-82.56846
"HCA - Nashville, TN",Community Hospital,blank,FL,Florida,Pasco County,New Port Richey,34652,For profit,Future Prospects: 2020,28.23662,-82.73668
"HCA - Nashville, TN",Regional Medical Center Bayonet Point,blank,FL,Florida,Pasco County,Hudson,34667,For profit,Future Prospects: 2020,28.39201,-82.65806
"HCA - Nashville, TN",Osceola Regional Medical Center,blank,FL,Florida,Osceola County,Kissimmee,34741,For profit,Future Prospects: 2020,28.30548,-81.42571
"HCA - Nashville, TN",Lawnwood Regional Medical Center & Heart Institute,blank,FL,Florida,St. Lucie County,Fort Pierce,34950,For profit,Future Prospects: 2020,27.4435,-80.32967
"HCA - Nashville, TN",Saint Lucie Medical Center,blank,FL,Florida,St. Lucie County,Port Saint Lucie,34952,For profit,Future Prospects: 2020,27.29562,-80.29887
"HCA - Nashville, TN",Raulerson Hospital,blank,FL,Florida,Okeechobee County,Okeechobee,34972,For profit,Future Prospects: 2020,27.50653,-80.92711
"HCA - Nashville, TN",Centennial Medical Center at Ashland City,blank,TN,Tennessee,Cheatham County,Ashland City,37015,For profit,Future Prospects: 2020,36.28415,-87.07721
"HCA - Nashville, TN",Horizon Medical Center,blank,TN,Tennessee,Dickson County,Dickson,37055,For profit,Future Prospects: 2020,36.07848,-87.44265
"HCA - Nashville, TN",Hendersonville Medical Center,blank,TN,Tennessee,Sumner County,Hendersonville,37075,For profit,Future Prospects: 2020,36.33996,-86.60659
"HCA - Nashville, TN",Summit Medical Center,blank,TN,Tennessee,Davidson County,Hermitage,37076,For profit,Future Prospects: 2020,36.14946,-86.58188
"HCA - Nashville, TN",StoneCrest Medical Center,blank,TN,Tennessee,Rutherford County,Smyrna,37167,For profit,Future Prospects: 2020,35.95858,-86.53269
"HCA - Nashville, TN",Skyline Medical Center,blank,TN,Tennessee,Davidson County,Nashville,37207,For profit,Future Prospects: 2020,36.23284,-86.77657
"HCA - Nashville, TN",Southern Hills Medical Center,blank,TN,Tennessee,Davidson County,Nashville,37211,For profit,Future Prospects: 2020,36.06718,-86.7237
"HCA - Nashville, TN",Parkridge Medical Center,blank,TN,Tennessee,Hamilton County,Chattanooga,37404,For profit,Future Prospects: 2020,35.02794,-85.26869
"HCA - Nashville, TN",Garden Park Medical Center,blank,MS,Mississippi,Harrison County,Gulfport,39503,For profit,Future Prospects: 2020,30.4776,-89.15358
"HCA - Nashville, TN",Frankfort Regional Medical Center,blank,KY,Kentucky,Franklin County,Frankfort,40601,For profit,Future Prospects: 2020,38.23397,-84.88086
"HCA - Nashville, TN",Greenview Regional Hospital,blank,KY,Kentucky,Warren County,Bowling Green,42104,For profit,Future Prospects: 2020,36.87837,-86.45125
"HCA - Nashville, TN",Terre Haute Regional Hospital,blank,IN,Indiana,Vigo County,Terre Haute,47802,For profit,Future Prospects: 2020,39.35111,-87.40744
"HCA - Nashville, TN",Research Belton Hospital,blank,MO,Missouri,Cass County,Belton,64012,For profit,Future Prospects: 2020,38.78686,-94.54993
"HCA - Nashville, TN",Centerpoint Medical Center,blank,MO,Missouri,Jackson County,Independence,64057,For profit,Future Prospects: 2020,39.06923,-94.32405
"HCA - Nashville, TN",Lee's Summit Medical Center,blank,MO,Missouri,Jackson County,Lee's Summit,64063,For profit,Future Prospects: 2020,38.912,-94.35161
"HCA - Nashville, TN",Lafayette Regional Health Center,blank,MO,Missouri,Lafayette County,Lexington,64067,For profit,Future Prospects: 2020,39.15592,-93.83556
"HCA - Nashville, TN",Research Psychiatric Center,blank,MO,Missouri,Jackson County,Kansas City,64101,For profit,Future Prospects: 2020,39.10355,-94.60073
"HCA - Nashville, TN",Research Medical Center,blank,MO,Missouri,Jackson County,Kansas City,64132,For profit,Future Prospects: 2020,38.98676,-94.54164
"HCA - Nashville, TN",Menorah Medical Center,blank,KS,Kansas,Johnson County,Overland Park,66209,For profit,Future Prospects: 2020,38.8991,-94.64373
"HCA - Nashville, TN",Overland Park Regional Medical Center,blank,KS,Kansas,Johnson County,Overland Park,66215,For profit,Future Prospects: 2020,38.95701,-94.74297
"HCA - Nashville, TN",Allen County Hospital,blank,KS,Kansas,Allen County,Iola,66749,For profit,Future Prospects: 2020,37.93754,-95.40782
"HCA - Nashville, TN",Wesley Medical Center,blank,KS,Kansas,Sedgwick County,Wichita,67214,For profit,Future Prospects: 2020,37.70721,-97.31786
"HCA - Nashville, TN",Galichia Heart Hospital,blank,KS,Kansas,Sedgwick County,Wichita,67220,For profit,Future Prospects: 2020,37.75153,-97.27912
"HCA - Nashville, TN",Tulane Medical Center,blank,LA,Louisiana,Orleans Parish,New Orleans,70112,For profit,Future Prospects: 2020,29.95705,-90.07686
"HCA - Nashville, TN",Lakeview Regional Medical Center,blank,LA,Louisiana,St. Tammany Parish,Covington,70433,For profit,Future Prospects: 2020,30.46329,-90.13839
"HCA - Nashville, TN",The Regional Medical Center of Acadiana,blank,LA,Louisiana,Lafayette Parish,Lafayette,70506,For profit,Future Prospects: 2020,30.19554,-92.0813
"HCA - Nashville, TN",Savoy Medical Center,blank,LA,Louisiana,Evangeline Parish,Mamou,70554,For profit,Future Prospects: 2020,30.62249,-92.4793
"HCA - Nashville, TN",Dauterive Hospital,blank,LA,Louisiana,Iberia Parish,New Iberia,70563,For profit,Future Prospects: 2020,30.02466,-91.72841
"HCA - Nashville, TN",Rapides Regional Medical Center,blank,LA,Louisiana,Rapides Parish,Alexandria,71301,For profit,Future Prospects: 2020,31.27427,-92.46874
"HCA - Nashville, TN",Oklahoma University Medical Center Edmond,blank,OK,Oklahoma,Oklahoma County,Edmond,73034,For profit,Future Prospects: 2020,35.70184,-97.4255
"HCA - Nashville, TN",Oklahoma University Medical Center,blank,OK,Oklahoma,Oklahoma County,Oklahoma City,73104,For profit,Future Prospects: 2020,35.47526,-97.50391
"HCA - Nashville, TN",Las Colinas Medical Center,blank,TX,Texas,Dallas County,Irving,75039,For profit,Future Prospects: 2020,32.88752,-96.94225
"HCA - Nashville, TN",Medical Center of Lewisville,blank,TX,Texas,Denton County,Lewisville,75057,For profit,Future Prospects: 2020,33.04952,-96.98383
"HCA - Nashville, TN",Medical Center of McKinney,blank,TX,Texas,Collin County,McKinney,75069,For profit,Future Prospects: 2020,33.16547,-96.59469
"HCA - Nashville, TN",Medical Center of Plano,blank,TX,Texas,Collin County,Plano,75075,For profit,Future Prospects: 2020,33.02137,-96.74102
"HCA - Nashville, TN",Green Oaks Hospital,blank,TX,Texas,Dallas County,Dallas,75201,For profit,Future Prospects: 2020,32.7878,-96.79948
"HCA - Nashville, TN",Medical City Hospital,blank,TX,Texas,Dallas County,Dallas,75230,For profit,Future Prospects: 2020,32.90237,-96.79205
"HCA - Nashville, TN",Medical Center of Arlington,blank,TX,Texas,Tarrant County,Arlington,76015,For profit,Future Prospects: 2020,32.69221,-97.13341
"HCA - Nashville, TN",Plaza Medical Center of Fort Worth,blank,TX,Texas,Tarrant County,Fort Worth,76104,For profit,Future Prospects: 2020,32.7287,-97.31777
"HCA - Nashville, TN",North Hills Hospital,blank,TX,Texas,Tarrant County,North Richland Hills,76180,For profit,Future Prospects: 2020,32.83996,-97.22499
"HCA - Nashville, TN",Denton Regional Medical Center,blank,TX,Texas,Denton County,Denton,76210,For profit,Future Prospects: 2020,33.15036,-97.096
"HCA - Nashville, TN",Texas Orthopedic Hospital,blank,TX,Texas,Harris County,Houston,77030,For profit,Future Prospects: 2020,29.70629,-95.3976
"HCA - Nashville, TN",The Woman's Hospital of Texas,blank,TX,Texas,Harris County,Houston,77054,For profit,Future Prospects: 2020,29.68088,-95.40493
"HCA - Nashville, TN",West Houston Medical Center,blank,TX,Texas,Harris County,Houston,77082,For profit,Future Prospects: 2020,29.72359,-95.64179
"HCA - Nashville, TN",Conroe Regional Medical Center,blank,TX,Texas,Montgomery County,Conroe,77304,For profit,Future Prospects: 2020,30.32957,-95.5141
"HCA - Nashville, TN",Kingwood Medical Center,blank,TX,Texas,Harris County,Kingwood,77339,For profit,Future Prospects: 2020,30.04922,-95.22136
"HCA - Nashville, TN",Bayshore Medical Center,blank,TX,Texas,Harris County,Pasadena,77504,For profit,Future Prospects: 2020,29.64802,-95.18998
"HCA - Nashville, TN",Mainland Medical Center,blank,TX,Texas,Galveston County,Texas City,77591,For profit,Future Prospects: 2020,29.39941,-94.99751
"HCA - Nashville, TN",Clear Lake Regional Medical Center,blank,TX,Texas,Harris County,Webster,77598,For profit,Future Prospects: 2020,29.53781,-95.13687
"HCA - Nashville, TN",Methodist Ambulatory Surgery Hospital,blank,TX,Texas,Bexar County,San Antonio,78201,For profit,Future Prospects: 2020,29.46876,-98.53324
"HCA - Nashville, TN",Methodist Texsan Hospital,blank,TX,Texas,Bexar County,San Antonio,78201,For profit,Future Prospects: 2020,29.46876,-98.52324
"HCA - Nashville, TN",Methodist Hospital,blank,TX,Texas,Bexar County,San Antonio,78229,For profit,Future Prospects: 2020,29.50555,-98.5772
"HCA - Nashville, TN",Methodist Stone Oak Hospital,blank,TX,Texas,Bexar County,San Antonio,78258,For profit,Future Prospects: 2020,29.6337,-98.50105
"HCA - Nashville, TN",Bayview Behavioral Hospital,blank,TX,Texas,Nueces County,Corpus Christi,78401,For profit,Future Prospects: 2020,27.79814,-97.40096
"HCA - Nashville, TN",Corpus Christi Medical Center - Doctors Regional,blank,TX,Texas,Nueces County,Corpus Christi,78411,For profit,Future Prospects: 2020,27.72946,-97.38567
"HCA - Nashville, TN",Rio Grande Regional Hospital,blank,TX,Texas,Hidalgo County,McAllen,78503,For profit,Future Prospects: 2020,26.16531,-98.24764
"HCA - Nashville, TN",Valley Regional Medical Center,blank,TX,Texas,Cameron County,Brownsville,78526,For profit,Future Prospects: 2020,25.99101,-97.43946
"HCA - Nashville, TN",Saint David's Round Rock Medical Center,blank,TX,Texas,Williamson County,Round Rock,78681,For profit,Future Prospects: 2020,30.53345,-97.71975
"HCA - Nashville, TN",Saint David's South Austin Medical Center,blank,TX,Texas,Travis County,Austin,78704,For profit,Future Prospects: 2020,30.24315,-97.76037
"HCA - Nashville, TN",Saint David's Medical Center,blank,TX,Texas,Travis County,Austin,78705,For profit,Future Prospects: 2020,30.29143107,-97.74259509
"HCA - Nashville, TN",Saint David's Rehabilitation Hospital,blank,TX,Texas,Travis County,Austin,78705,For profit,Future Prospects: 2020,30.28961472,-97.73700492
"HCA - Nashville, TN",Heart Hospital of Austin,blank,TX,Texas,Travis County,Austin,78756,For profit,Future Prospects: 2020,30.32227,-97.74017
"HCA - Nashville, TN",Saint David's North Austin Medical Center,blank,TX,Texas,Travis County,Austin,78758,For profit,Future Prospects: 2020,30.38799,-97.70684
"HCA - Nashville, TN",Las Palmas Medical Center,blank,TX,Texas,El Paso County,El Paso,79902,For profit,Future Prospects: 2020,31.78845013,-106.5004
"HCA - Nashville, TN",Spalding Rehabilitation Hospital,blank,CO,Colorado,Arapahoe County,Aurora,80010,For profit,Future Prospects: 2020,39.73881,-104.86247
"HCA - Nashville, TN",The Medical Center of Aurora,blank,CO,Colorado,Arapahoe County,Aurora,80012,For profit,Future Prospects: 2020,39.69975,-104.83761
"HCA - Nashville, TN",Swedish Medical Center,blank,CO,Colorado,Arapahoe County,Englewood,80113,For profit,Future Prospects: 2020,39.64216,-104.96251
"HCA - Nashville, TN",Sky Ridge Medical Center,blank,CO,Colorado,Douglas County,Lone Tree,80124,For profit,Future Prospects: 2020,39.53184,-104.89207
"HCA - Nashville, TN",Presbyterian/Saint Luke's Medical Center,blank,CO,Colorado,Denver County,Denver,80218,For profit,Future Prospects: 2020,39.73084,-104.9707
"HCA - Nashville, TN",Rose Medical Center,blank,CO,Colorado,Denver County,Denver,80220,For profit,Future Prospects: 2020,39.7338,-104.9166
"HCA - Nashville, TN",North Suburban Medical Center,blank,CO,Colorado,Adams County,Thornton,80229,For profit,Future Prospects: 2020,39.85544,-104.95739
"HCA - Nashville, TN",Eastern Idaho Regional Medical Center,blank,ID,Idaho,Bonneville County,Idaho Falls,83404,For profit,Future Prospects: 2020,43.42448,-112.01199
"HCA - Nashville, TN",West Valley Medical Center,blank,ID,Idaho,Canyon County,Caldwell,83605,For profit,Future Prospects: 2020,43.66239,-116.65642
"HCA - Nashville, TN",Lakeview Hospital,blank,UT,Utah,Davis County,Bountiful,84010,For profit,Future Prospects: 2020,40.86774,-111.86726
"HCA - Nashville, TN",Timpanogos Regional Hospital,blank,UT,Utah,Utah County,Orem,84057,For profit,Future Prospects: 2020,40.31425,-111.7104
"HCA - Nashville, TN",Saint Mark's Hospital,blank,UT,Utah,Salt Lake County,Salt Lake City,84124,For profit,Future Prospects: 2020,40.67722,-111.81329
"HCA - Nashville, TN",Brigham City Community Hospital,blank,UT,Utah,Box Elder County,Brigham City,84302,For profit,Future Prospects: 2020,41.54808,-112.04562
"HCA - Nashville, TN",Ogden Regional Medical Center,blank,UT,Utah,Weber County,Ogden,84405,For profit,Future Prospects: 2020,41.15797,-111.96657
"HCA - Nashville, TN",Mountain View Hospital,blank,UT,Utah,Utah County,Payson,84651,For profit,Future Prospects: 2020,39.95422,-111.71465
"HCA - Nashville, TN",Sunrise Hospital & Medical Center,blank,NV,Nevada,Clark County,Las Vegas,89109,For profit,Future Prospects: 2020,36.12535,-115.16373
"HCA - Nashville, TN",MountainView Hospital,blank,NV,Nevada,Clark County,Las Vegas,89128,For profit,Future Prospects: 2020,36.19682,-115.26436
"HCA - Nashville, TN",Southern Hills Hospital & Medical Center,blank,NV,Nevada,Clark County,Las Vegas,89148,For profit,Future Prospects: 2020,36.0588,-115.31039
"HCA - Nashville, TN",West Hills Hospital & Medical Center,blank,CA,California,Los Angeles County,West Hills,91307,For profit,Future Prospects: 2020,34.20164,-118.66216
"HCA - Nashville, TN",Los Robles Hospital and Medical Center,blank,CA,California,Ventura County,Thousand Oaks,91360,For profit,Future Prospects: 2020,34.21272,-118.88213
"HCA - Nashville, TN",Riverside Community Hospital,blank,CA,California,Riverside County,Riverside,92501,For profit,Future Prospects: 2020,33.99542,-117.37361
"HCA - Nashville, TN",Regional Medical Center of San Jose,blank,CA,California,Santa Clara County,San Jose,95116,For profit,Future Prospects: 2020,37.35042,-121.85258
"HCA - Nashville, TN",Good Samaritan Hospital,blank,CA,California,Santa Clara County,San Jose,95124,For profit,Future Prospects: 2020,37.25689,-121.92272
"HCA - Nashville, TN",Alaska Regional Hospital,blank,AK,Alaska,Anchorage Municipality,Anchorage,99508,For profit,Future Prospects: 2020,61.2007,-149.81447
Hospital Sisters Health System,St. Nicholas Hospital,520044,WI,Wisconsin,Sheboygan,Sheboygan,53081,Non-profit,2019,43.71278,-87.74034
Hospital Sisters Health System,St. Clare Memorial Hospital,521310,WI,Wisconsin,Oconto,Oconto Falls,54154,Non-profit,2019,44.86808,-88.18844
Hospital Sisters Health System,St. Vincent Hospital,520075,WI,Wisconsin,Brown,Green Bay,54301,Non-profit,2019,44.48205,-88.02034
Hospital Sisters Health System,St. Mary's Hospital Medical Center,520097,WI,Wisconsin,Brown,Green Bay,54303,Non-profit,2019,44.53866,-88.05007
Hospital Sisters Health System,Sacred Heart Hospital,520013,WI,Wisconsin,Eau Claire,Eau Claire,54701,Non-profit,2019,44.74438,-91.51059
Hospital Sisters Health System,St. Joseph's Hospital,520017,WI,Wisconsin,Chippewa,Chippewa Falls,54729,Non-profit,2019,44.94401,-91.39494
Hospital Sisters Health System,St. Francis Hospital,141350,IL,Illinois,Montgomery,Litchfield,62056,Non-profit,2019,39.17874,-89.671
Hospital Sisters Health System,St. Joseph's Hospital (IL),140145,IL,Illinois,Clinton,Breese,62230,Non-profit,2019,38.64037,-89.52681
Hospital Sisters Health System,Holy Family Hospital,140137,IL,Illinois,Bond,Greenville,62246,Non-profit,2019,38.8888,-89.42627
Hospital Sisters Health System,St. Elizabeth's Hospital,140187,IL,Illinois,St. Clair,O Fallon,62269,Non-profit,2019,38.60337,-89.91603
Hospital Sisters Health System,St. Anthony's Memorial Hospital,140032,IL,Illinois,Effingham,Effingham,62401,Non-profit,2019,39.11953,-88.56417
Hospital Sisters Health System,St. Mary's Hospital,140166,IL,Illinois,Macon,Decatur,62521,Non-profit,2019,39.81509,-88.92533
Hospital Sisters Health System,St. John's Hospital,140053,IL,Illinois,Sangamon,Springfield,62769,Non-profit,2019,39.80553,-89.644864
Island Hospital,Island Hospital,500007,WA,Washington,Skagit County,Anacortes,98221,-,2011-2016,48.50321,-122.65492
LifePoint,Memorial Medical Center - Main Campus,blank,PA,Pennsylvania,Cambria County,Johnstown,15905,For profit,Future Prospects: 2020,40.28712,-78.97841
LifePoint,Fauquier Health,490023,VA,Virginia,Fauquier,Warrenton,20186,For profit,2019,38.70158,-77.84441
LifePoint,Sovah Health - Martinsville,–,VA,Virginia,Martinsville,Martinsville,24112,For profit,2019,36.72729,-79.84428
LifePoint,Twin County Regional Healthcare,490115,VA,Virginia,Galax,Galax,24333,For profit,2019,36.63831,-80.92884
LifePoint,Wythe County Community Hospital,490111,VA,Virginia,Wythe,Wytheville,24382,For profit,2019,36.96023,-81.09972
LifePoint,Sovah Health - Danville,490075,VA,Virginia,Danville,Danville,24541,For profit,2019,36.59208,-79.51244
LifePoint,Clinch Valley Health,490060,VA,Virginia,Tazewell,Richlands,24641,For profit,2019,37.11584,-81.80374
LifePoint,Logan Regional Medical Center,blank,WV,West Virginia,Logan County,Logan,25601,For profit,Future Prospects: 2020,37.859,-82.00464
LifePoint,Central Carolina Hospital,340020,NC,North Carolina,Lee County,Sanford,27330,For profit,2018,35.51635,-79.18719
LifePoint,Maria Parham Health,340132,NC,North Carolina,Vance County,Henderson,27536,For profit,2018,36.3267,-78.40885
LifePoint,Person Memorial Hospital,340159,NC,North Carolina,Person County,Roxboro,27573,For profit,2018,36.3968,-78.97602
LifePoint,Wilson Medical Center,340126,NC,North Carolina,Wilson County,Wilson,27893,For profit,2018,35.69204,-77.90257
LifePoint,Rutherford Regional Health System,340013,NC,North Carolina,Rutherford County,Rutherfordton,28139,For profit,2018,35.3487,-81.99232
LifePoint,Frye Regional Medical Center,340116,NC,North Carolina,Catawba County,Hickory,28601,For profit,2018,35.77253,-81.32637
LifePoint,Swain Community Hospital,341305,NC,North Carolina,Swain County,Bryson City,28713,For profit,2018,35.36935,-83.50255
LifePoint,Haywood Regional Medical Center,340184,NC,North Carolina,Haywood County,Clyde,28721,For profit,2018,35.64802,-82.95111
LifePoint,Harris Regional Hospital,340016,NC,North Carolina,Jackson County,Sylva,28779,For profit,2018,35.35523,-83.21137
LifePoint,Providence Health,420026,SC,South Carolina,Richland County,Columbia,29204,For profit,2017,34.02924,-81.00063
LifePoint,Rockdale Medical Center,blank,GA,Georgia,Rockdale County,Conyers,30012,For profit,Future Prospects: 2020,33.71884,-83.99866
LifePoint,Putnam Community Medical Center,blank,FL,Florida,Putnam County,Palatka,32177,For profit,Future Prospects: 2020,29.69121,-81.71137
LifePoint,Lakeland Community Hospital,blank,AL,Alabama,Winston County,Haleyville,35565,For profit,Future Prospects: 2020,34.23414,-87.55886
LifePoint,Northwest Medical Center,blank,AL,Alabama,Marion County,Winfield,35594,For profit,Future Prospects: 2020,33.92969,-87.77212
LifePoint,Russellville Hospital,blank,AL,Alabama,Franklin County,Russellville,35653,For profit,Future Prospects: 2020,34.51688,-87.87134
LifePoint,Vaughan Regional Medical Center,blank,AL,Alabama,Dallas County,Selma,36701,For profit,Future Prospects: 2020,32.47679,-87.05709
LifePoint,Riverview Regional Medical Center,441307,TN,Tennessee,Smith,Carthage,37030,For profit,2019,36.27438,-85.95257
LifePoint,Sumner Regional Medical Center,440003,TN,Tennessee,Sumner,Gallatin,37066,For profit,2019,36.39872,-86.45526
LifePoint,Trousdale Medical Center,441301,TN,Tennessee,Trousdale,Hartsville,37074,For profit,2019,36.41898,-86.14427
LifePoint,Starr Regional Medical Center - Athens,440068,TN,Tennessee,McMinn,Athens,37303,For profit,2019,35.4407,-84.64319
LifePoint,Starr Regional Medical Center - Etowah,–,TN,Tennessee,McMinn,Etowah,37331,For profit,2019,35.31937,-84.53023
LifePoint,Southern Tennessee Reigonal Health System - Sewanee,–,TN,Tennessee,Franklin,Sewanee,37375,For profit,2019,35.15429,-85.89182
LifePoint,Southern Tennessee Medical Center,blank,TN,Tennessee,Franklin County,Winchester,37398,For profit,Future Prospects: 2020,35.18375,-86.14486
LifePoint,Southern Tennessee Regional Health System - Winchester,440058,TN,Tennessee,Franklin,Winchester,37398,For profit,2019,35.18375,-86.13486
LifePoint,Southern Tennessee Regional Health System - Lawrenceburg,440175,TN,Tennessee,Lawrence,Lawrenceburg,38464,For profit,2019,35.2867,-87.42956
LifePoint,Southern Tennessee Regional Health System - Pulaski,440020,TN,Tennessee,Giles,Pulaski,38478,For profit,2019,35.21489,-87.01128
LifePoint,Livingston Regional Hospital,440187,TN,Tennessee,Overton,Livingston,38570,For profit,2019,36.37413,-85.32084
LifePoint,Bolivar Medical Center,blank,MS,Mississippi,Bolivar County,Cleveland,38732,For profit,Future Prospects: 2020,33.75623,-90.7275
LifePoint,Spring View Hospital,blank,KY,Kentucky,Marion County,Lebanon,40033,For profit,Future Prospects: 2020,37.55846,-85.23808
LifePoint,Georgetown Community Hospital,blank,KY,Kentucky,Scott County,Georgetown,40324,For profit,Future Prospects: 2020,38.24674,-84.55326
LifePoint,Bourbon Community Hospital,blank,KY,Kentucky,Bourbon County,Paris,40361,For profit,Future Prospects: 2020,38.20598,-84.2273
LifePoint,Bluegrass Community Hospital,blank,KY,Kentucky,Woodford County,Versailles,40383,For profit,Future Prospects: 2020,38.01264,-84.73985
LifePoint,Clark Regional Medical Center,blank,KY,Kentucky,Clark County,Winchester,40391,For profit,Future Prospects: 2020,37.96943,-84.14517
LifePoint,Fleming County Hospital,blank,KY,Kentucky,Fleming County,Flemingsburg,41041,For profit,Future Prospects: 2020,38.40895,-83.72604
LifePoint,Meadowview Regional Medical Center,blank,KY,Kentucky,Mason County,Maysville,41056,For profit,Future Prospects: 2020,38.60007,-83.77847
LifePoint,Jackson Purchase Medical Center,blank,KY,Kentucky,Graves County,Mayfield,42066,For profit,Future Prospects: 2020,36.73285,-88.63942
LifePoint,Logan Memorial Hospital,blank,KY,Kentucky,Logan County,Russellville,42276,For profit,Future Prospects: 2020,36.85711,-86.88076
LifePoint,Lake Cumberland Regional Hospital,blank,KY,Kentucky,Pulaski County,Somerset,42503,For profit,Future Prospects: 2020,37.15642,-84.52524
LifePoint,Scott Memorial Hospital,blank,IN,Indiana,Scott County,Scottsburg,47170,For profit,Future Prospects: 2020,38.68491,-85.8436
LifePoint,Marquette General Hospital,blank,MI,Michigan,Marquette County,Marquette,49855,For profit,Future Prospects: 2020,46.57441,-87.46659
LifePoint,Western Plains Medical Complex,blank,KS,Kansas,Ford County,Dodge City,67801,For profit,Future Prospects: 2020,37.72528,-100.05496
LifePoint,River Parishes Hospital,blank,LA,Louisiana,St. John the Baptist Parish,LaPlace,70068,For profit,Future Prospects: 2020,30.13453,-90.43478
LifePoint,Teche Regional Medical Center,blank,LA,Louisiana,St. Mary Parish,Morgan City,70380,For profit,Future Prospects: 2020,29.7218,-91.11652
LifePoint,Minden Medical Center,blank,LA,Louisiana,Webster Parish,Minden,71055,For profit,Future Prospects: 2020,32.67249,-93.29812
LifePoint,Palestine Regional Medical Center,blank,TX,Texas,Anderson County,Palestine,75801,For profit,Future Prospects: 2020,31.73458,-95.53316
LifePoint,Parkview Regional Hospital,blank,TX,Texas,Limestone County,Mexia,76667,For profit,Future Prospects: 2020,31.65532,-96.46855
LifePoint,St. Joseph Regional Medical Center,130003,ID,Idaho,Nez Perce,Lewiston,83501,For profit,2019,46.20696,-116.89129
LifePoint,Ashley Regional Medical Center,blank,UT,Utah,Uintah County,Vernal,84078,For profit,Future Prospects: 2020,40.62969,-109.48291
LifePoint,Castleview Hospital,blank,UT,Utah,Carbon County,Price,84501,For profit,Future Prospects: 2020,39.547,-110.76031
LifePoint,Los Alamos Medical Center,blank,NM,New Mexico,Los Alamos County,Los Alamos,87544,For profit,Future Prospects: 2020,35.84231,-106.29078
LifePoint,Northeastern Nevada Regional Hospital,blank,NV,Nevada,Elko County,Elko,89801,For profit,Future Prospects: 2020,41.24908,-115.75892
Mercy,Mercy Clayton and Clarkson,–,MO,Missouri,St. Louis County,Ballwin,63011,Non-profit,2011-2016,38.6037,-90.55919
Mercy,Mercy Rehabilitation Hospital St. Louis,–,MO,Missouri,St. Louis County,Chesterfield,63017,Non-profit,2011-2016,38.65104,-90.54142
Mercy,Mercy Hospital Jefferson,260023,MO,Missouri,Jefferson County,Crystal City,63019,Non-profit,2011-2016,38.22874,-90.37672
Mercy,Mercy Surgery Center,–,MO,Missouri,Jefferson County,Festus,63028,Non-profit,2011-2016,38.14637,-90.39567
Mercy,Mercy Hospital Washington,260052,MO,Missouri,Franklin County,Washington,63090,Non-profit,2011-2016,38.53099,-91.05345
Mercy,Mercy Patients First Drive,–,MO,Missouri,Franklin County,Washington,63090,Non-profit,2011-2016,38.53099,-91.04345
Mercy,Mercy Heart and Vascular Hospital St. Louis,–,MO,Missouri,St. Louis County,St. Louis,63141,Non-profit,2011-2016,38.65829,-90.46318
Mercy,Mercy Hospital St. Louis,260020,MO,Missouri,St. Louis County,St. Louis,63141,Non-profit,2011-2016,38.65829,-90.45318
Mercy,Mercy Hospital Joplin,260001,MO,Missouri,Jasper County,Joplin,64804,Non-profit,2011-2016,37.0209,-94.50993
Mercy,Mercy McCune-Brooks Hospital,261338,MO,Missouri,Jasper County,Carthage,64836,Non-profit,2011-2016,37.18744,-94.28786
Mercy,Mercy Rolla,–,MO,Missouri,Phelps County,Rolla,65401,Non-profit,2011-2016,37.90464,-91.76536
Mercy,Mercy Hospital Lebanon,260059,MO,Missouri,Laclede County,Lebanon,65536,Non-profit,2011-2016,37.68624,-92.64574
Mercy,Mercy St. Francis Hospital,261335,MO,Missouri,Howell County,Mountain View,65548,Non-profit,2011-2016,37.01445,-91.71494
Mercy,Mercy Hospital Aurora,261316,MO,Missouri,Lawrence County,Aurora,65605,Non-profit,2011-2016,36.88356,-93.69189
Mercy,Mercy Hospital Cassville,261317,MO,Missouri,Barry County,Cassville,65625,Non-profit,2011-2016,36.67461,-93.8147
Mercy,Mercy Orthopedic Hospital Springfield,–,MO,Missouri,Christian County,Ozark,65721,Non-profit,2011-2016,36.9801,-93.21018
Mercy,Mercy Hospital Springfield,260065,MO,Missouri,Greene County,Springfield,65804,Non-profit,2011-2016,37.14924,-93.25766
Mercy,Mercy Rehabilitation Hospital Springfield,–,MO,Missouri,Greene County,Springfield,65804,Non-profit,2011-2016,37.14924,-93.24766
Mercy,Mercy Hospital Fort Scott,170058,KS,Kansas,Bourbon County,Fort Scott,66701,Non-profit,2011-2016,37.82353,-94.76156
Mercy,Mercy Maude Norton Hospital,171308,KS,Kansas,Cherokee County,Columbus,66725,Non-profit,2011-2016,37.16032,-94.89053
Mercy,Mercy Hospital Independence,170010,KS,Kansas,Montgomery County,Independence,67301,Non-profit,2011-2016,37.20891,-95.7534
Mercy,Mercy Hospital Berryville,41329,AR,Arkansas,Carroll County,Berryville,72616,Non-profit,2011-2016,36.34291,-93.5564
Mercy,Mercy Hospital Northwest Arkansas,40010,AR,Arkansas,Benton County,Rogers,72758,Non-profit,2011-2016,36.29972,-94.13837
Mercy,Mercy Hospital Paris,41300,AR,Arkansas,Logan County,Paris,72855,Non-profit,2011-2016,35.25288,-93.67869
Mercy,Mercy Hospital Fort Smith,40062,AR,Arkansas,Sebastian County,Fort Smith,72903,Non-profit,2011-2016,35.35138,-94.36531
Mercy,Mercy Orthopedic Hospital Fort Smith,–,AR,Arkansas,Sebastian County,Fort Smith,72903,Non-profit,2011-2016,35.35138,-94.35531
Mercy,Mercy Hospital Booneville,41318,AR,Arkansas,Logan County,Booneville,72927,Non-profit,2011-2016,35.07484,-93.93656
Mercy,Mercy Hospital Ozark,41303,AR,Arkansas,Franklin County,Ozark,72949,Non-profit,2011-2016,35.57712,-93.80774
Mercy,Mercy Hospital Waldron,41305,AR,Arkansas,Scott County,Waldron,72958,Non-profit,2011-2016,34.90485,-94.12455
Mercy,Mercy Edmond I-35,–,OK,Oklahoma,Oklahoma County,Edmond,73013,Non-profit,2011-2016,35.61946,-97.4812
Mercy,Mercy Hospital El Reno,370011,OK,Oklahoma,Canadian County,El Reno,73036,Non-profit,2011-2016,35.50998,-97.9596
Mercy,Mercy Hospital Logan County,371317,OK,Oklahoma,Logan County,Guthrie,73044,Non-profit,2011-2016,35.8632,-97.42483
Mercy,Mercy Hospital Oklahoma City,370013,OK,Oklahoma,Oklahoma County,Oklahoma City,73120,Non-profit,2011-2016,35.58046,-97.57224
Mercy,Mercy Rehabilitation Hospital Oklahoma City,–,OK,Oklahoma,Oklahoma County,Oklahoma City,73142,Non-profit,2011-2016,35.61379,-97.64242
Mercy,Mercy Hospital Ardmore,370047,OK,Oklahoma,Carter County,Ardmore,73401,Non-profit,2011-2016,34.20309,-97.11484
Mercy,Mercy Hospital Healdton,371310,OK,Oklahoma,Carter County,Healdton,73438,Non-profit,2011-2016,34.28646,-97.49945
Mercy,Mercy Hospital Tishomingo,371304,OK,Oklahoma,Johnston County,Tishomingo,73460,Non-profit,2011-2016,34.2871,-96.66144
Mercy,Mercy Hospital Kingfisher,371313,OK,Oklahoma,Kingfisher County,Kingfisher,73750,Non-profit,2011-2016,35.85545,-97.95233
Mercy,Mercy Hospital Watonga,371302,OK,Oklahoma,Blaine County,Watonga,73772,Non-profit,2011-2016,35.86021,-98.4268
Mercy,Mercy Hospital Ada,370020,OK,Oklahoma,Pontotoc County,Ada,74820,Non-profit,2011-2016,34.78899,-96.71076
Mercy - Chicago,Mercy Hospital & Medical Center,140158,IL,Illinois,Cook County,Chicago,60616,Non-profit,2018,41.85022,-87.62721
Mercy - Chicago,Mercy Medical Group at Dearborn Station,–,IL,Illinois,Cook County,Chicago,60605,Non-profit,2018,41.86684,-87.62483
Mercy - Chicago,MercyWorks at Dearborn Station,–,IL,Illinois,Cook County,Chicago,60605,Non-profit,2018,41.86684,-87.61483
Mercy - Chicago,Mercy Medical Group in Bridgeport,–,IL,Illinois,Cook County,Chicago,60609,Non-profit,2018,41.81252,-87.65565
Mercy - Chicago,Lakefront Bariatrics of Chicago,–,IL,Illinois,Cook County,Chicago,60616,Non-profit,2018,41.84875553,-87.62367447
Mercy - Chicago,Mercy Medical Group at Mercy Hospital,–,IL,Illinois,Cook County,Chicago,60616,Non-profit,2018,41.84875553,-87.63074553
Mercy - Chicago,Mercy Medical Group in Chinatown,–,IL,Illinois,Cook County,Chicago,60616,Non-profit,2018,41.84522,-87.63221
Mercy - Chicago,Mercy Medical Group on Michigan,–,IL,Illinois,Cook County,Chicago,60616,Non-profit,2018,41.84168447,-87.63074553
Mercy - Chicago,Mercy Medical Group Specialty Center,–,IL,Illinois,Cook County,Chicago,60616,Non-profit,2018,41.84022,-87.62721
Mercy - Chicago,Mercy Rostenkowski Outpatient Surgery Center,–,IL,Illinois,Cook County,Chicago,60616,Non-profit,2018,41.84168447,-87.62367447
Mercy - Chicago,Women's Health Center,–,IL,Illinois,Cook County,Chicago,60616,Non-profit,2018,41.84522,-87.62221
Mercy - Chicago,Mercy Medical Group in Chatham,–,IL,Illinois,Cook County,Chicago,60619,Non-profit,2018,41.74373,-87.60549
Mercy - Chicago,Mercy mMedical Group on Pulaski & 55th,–,IL,Illinois,Cook County,Chicago,60629,Non-profit,2018,41.77567,-87.71676
Mercy - Chicago,MercyWorks at Pulaski & 55th,–,IL,Illinois,Cook County,Chicago,60629,Non-profit,2018,41.77567,-87.70676
Mercy - Chicago,Mercy Medical Group on Pulaski & 43rd,–,IL,Illinois,Cook County,Chicago,60632,Non-profit,2018,41.81133,-87.71335
Mercy - Chicago,Mercy Medical Group at Oakwood Shores,–,IL,Illinois,Cook County,Chicago,60653,Non-profit,2018,41.81925,-87.61008
Mosaic Life Care,Endocrinology Services at Clarinda Regional Health Center,161352,IA,Iowa,Page County,Clarinda,51632,-,2018,40.74689,-95.04959
Mosaic Life Care,Family Care at Albany Clinic East,–,MO,Missouri,Gentry County,Albany,64402,-,2018,40.25757,-94.33289
Mosaic Life Care,Mosaic Life Care Services at Northwest Medical Center,261328,MO,Missouri,Gentry County,Albany,64402,-,2018,40.25757,-94.32289
Mosaic Life Care,Cardiology Services at Harrison County Community Hospital,261312,MO,Missouri,Harrison County,Bethany,64424,-,2018,40.26676013,-94.03346
Mosaic Life Care,Endocrinology Services at Harrison County Community Hospital,–,MO,Missouri,Harrison County,Bethany,64424,-,2018,40.26676013,-94.03846
Mosaic Life Care,Neurology Services at Harrison County Community Hospital,–,MO,Missouri,Harrison County,Bethany,64424,-,2018,40.26243,-94.04096
Mosaic Life Care,Pain Management Services at Harrison County Community Hospital,–,MO,Missouri,Harrison County,Bethany,64424,-,2018,40.25809987,-94.03846
Mosaic Life Care,Rheumatology Services at Harrison County Community Hospital,–,MO,Missouri,Harrison County,Bethany,64424,-,2018,40.25809987,-94.03346
Mosaic Life Care,Women's Health Services at Harrison county Community Hospital,–,MO,Missouri,Harrison County,Bethany,64424,-,2018,40.26243,-94.03096
Mosaic Life Care,Mosaic Life Care at Cameron - Family Care,–,MO,Missouri,Clinton County,Cameron,64429,-,2018,39.73473,-94.23287
Mosaic Life Care,Mosaic Life Care Services at Cameron Regional Medical Center,260057,MO,Missouri,Clinton County,Cameron,64429,-,2018,39.73473,-94.22287
Mosaic Life Care,Family Care at Grant City Clinic,–,MO,Missouri,Worth County,Grant City,64456,-,2018,40.48962,-94.38705
Mosaic Life Care,Family Care at New Hampton Rural Health Clinic,–,MO,Missouri,Harrison County,New Hampton,64471,-,2018,40.25602,-94.19423
Mosaic Life Care,"Cancer Care at Maryville, MO",260050,MO,Missouri,Worth County,Maryville,64486,-,2018,40.53298916,-94.61553255
Mosaic Life Care,Cardiology Services at St. Francis Hospital and Health Services,–,MO,Missouri,Worth County,Maryville,64486,-,2018,40.53395464,-94.61976261
Mosaic Life Care,"Ear, Nose and Throat (ENT) Services at St. Francis Hospital and Health Services",–,MO,Missouri,Worth County,Maryville,64486,-,2018,40.53124942,-94.62315484
Mosaic Life Care,Neurology Services at St. Francis Hospital and Health Services,–,MO,Missouri,Worth County,Maryville,64486,-,2018,40.52691058,-94.62315484
Mosaic Life Care,Neurosurgery Services at St. Francis Hospital and Health Services,–,MO,Missouri,Worth County,Maryville,64486,-,2018,40.52420536,-94.61976261
Mosaic Life Care,Pulmonary Services at St. Francis Hospital and Health Services,–,MO,Missouri,Worth County,Maryville,64486,-,2018,40.52517084,-94.61553255
Mosaic Life Care,Vascular Surgery Services at St. Francis Hospital and Health Services,–,MO,Missouri,Worth County,Maryville,64486,-,2018,40.52908,-94.61365
Mosaic Life Care,Family Care at Stanberry Rural Health Clinic,–,MO,Missouri,Gentry County,Stanberry,64489,-,2018,40.23307,-94.56053
Mosaic Life Care,Mosaic Life Care at Stanberry - Hospice,–,MO,Missouri,Gentry County,Stanberry,64489,-,2018,40.23307,-94.55053
Mosaic Life Care,Mosaic Life Care - Counseling Care,260006,MO,Missouri,Buchanan County,St. Joseph,64506,-,2018,39.79085261,-94.79685536
Mosaic Life Care,Mosaic Life Care - Hospice,–,MO,Missouri,Buchanan County,St. Joseph,64506,-,2018,39.79190942,-94.79722516
Mosaic Life Care,Mosaic Life Care at St. Joseph - Adult Infectious Disease,–,MO,Missouri,Buchanan County,St. Joseph,64506,-,2018,39.79285745,-94.79782084
Mosaic Life Care,Mosaic Life Care at St. Joseph - Anesthesia,–,MO,Missouri,Buchanan County,St. Joseph,64506,-,2018,39.79364916,-94.79861255
Mosaic Life Care,Mosaic Life Care at St. Joseph - Diabetes Care,–,MO,Missouri,Buchanan County,St. Joseph,64506,-,2018,39.79424484,-94.79956058
Mosaic Life Care,"Mosaic Life Care at St. Joseph - Ear, Nose and Throat",–,MO,Missouri,Buchanan County,St. Joseph,64506,-,2018,39.79461464,-94.8006174
Mosaic Life Care,Mosaic Life Care at St. Joseph - Emergency Room,–,MO,Missouri,Buchanan County,St. Joseph,64506,-,2018,39.79474,-94.80173
Mosaic Life Care,Mosaic Life Care at St. Joseph - Endocrinology,–,MO,Missouri,Buchanan County,St. Joseph,64506,-,2018,39.79461464,-94.80284261
Mosaic Life Care,Mosaic Life Care at St. Joseph - Family Care N 36th Street,–,MO,Missouri,Buchanan County,St. Joseph,64506,-,2018,39.79424484,-94.80389942
Mosaic Life Care,Mosaic Life care at St. Joseph - Family Care North Pointe B and C,–,MO,Missouri,Buchanan County,St. Joseph,64506,-,2018,39.79364916,-94.80484745
Mosaic Life Care,Mosaic Life Care at St. Joseph - Hospitalists,–,MO,Missouri,Buchanan County,St. Joseph,64506,-,2018,39.79285745,-94.80563916
Mosaic Life Care,Mosaic Life Care at St. Joseph - Internal Medicine Beck Road,–,MO,Missouri,Buchanan County,St. Joseph,64506,-,2018,39.79190942,-94.80623484
Mosaic Life Care,Mosaic Life Care at St. Joseph - Internal Medicine Plaza 2,–,MO,Missouri,Buchanan County,St. Joseph,64506,-,2018,39.79085261,-94.80660464
Mosaic Life Care,"Mosaic Life Care at St. Joseph - Internal Medicine, Pediatrics and Family Care",–,MO,Missouri,Buchanan County,St. Joseph,64506,-,2018,39.78974,-94.80673
Mosaic Life Care,Mosaic Life Care at St. Joseph - Medical Center,–,MO,Missouri,Buchanan County,St. Joseph,64506,-,2018,39.7886274,-94.80660464
Mosaic Life Care,Mosaic Life Care at St. Joseph - Neurology,–,MO,Missouri,Buchanan County,St. Joseph,64506,-,2018,39.78757058,-94.80623484
Mosaic Life Care,Mosaic Life Care at St. Joseph - Outpatient Behavioral Health,–,MO,Missouri,Buchanan County,St. Joseph,64506,-,2018,39.78662255,-94.80563916
Mosaic Life Care,Mosaic Life Care at St. Joseph - Outpatient therapy and Chiropractic Care,–,MO,Missouri,Buchanan County,St. Joseph,64506,-,2018,39.78583084,-94.80484745
Mosaic Life Care,Mosaic Life Care at St. Joseph - Outpatient Therapy Frederick Avenue,–,MO,Missouri,Buchanan County,St. Joseph,64506,-,2018,39.78523516,-94.80389942
Mosaic Life Care,Mosaic Life Care at St. Joseph - Physical Medicine and Rehabilitation,–,MO,Missouri,Buchanan County,St. Joseph,64506,-,2018,39.78486536,-94.80284261
Mosaic Life Care,Mosaic Life Care at St. Joseph - Plastic Surgery and Dermatology,–,MO,Missouri,Buchanan County,St. Joseph,64506,-,2018,39.78474,-94.80173
Mosaic Life Care,Mosaic Life Care at St. Joseph - Pulmonary and Critical Care,–,MO,Missouri,Buchanan County,St. Joseph,64506,-,2018,39.78486536,-94.8006174
Mosaic Life Care,Mosaic Life Care at St. Joseph - Radiology and Outpatient Imaging,–,MO,Missouri,Buchanan County,St. Joseph,64506,-,2018,39.78523516,-94.79956058
Mosaic Life Care,Mosaic Life Care at St. Joseph - Sleep Disorders,–,MO,Missouri,Buchanan County,St. Joseph,64506,-,2018,39.78583084,-94.79861255
Mosaic Life Care,Mosaic Life Care at St. Joseph - Urgent Care,–,MO,Missouri,Buchanan County,St. Joseph,64506,-,2018,39.78662255,-94.79782084
Mosaic Life Care,Mosaic Life Care at St. Joseph - Women's Health Plaza 2,–,MO,Missouri,Buchanan County,St. Joseph,64506,-,2018,39.78757058,-94.79722516
Mosaic Life Care,Mosaic Life Care at St. Joseph - Wound Care,–,MO,Missouri,Buchanan County,St. Joseph,64506,-,2018,39.7886274,-94.79685536
Mosaic Life Care,Mosaic Life Care Home Health,–,MO,Missouri,Buchanan County,St. Joseph,64506,-,2018,39.78974,-94.79673
Mosaic Life Care,Mosaic Life Care at St .Joseph - Bariatric Care,–,MO,Missouri,Buchanan County,St. Joseph,64507,-,2018,39.73043621,-94.75527764
Mosaic Life Care,Mosaic Life Care at St. Joseph - Breast Care,–,MO,Missouri,Buchanan County,St. Joseph,64507,-,2018,39.73199848,-94.75624496
Mosaic Life Care,Mosaic Life Care at St. Joseph - Cardiothoracic Surgery,–,MO,Missouri,Buchanan County,St. Joseph,64507,-,2018,39.73310582,-94.75771131
Mosaic Life Care,Mosaic Life Care at St. Joseph - Cardiovascular Care,–,MO,Missouri,Buchanan County,St. Joseph,64507,-,2018,39.73360867,-94.75947866
Mosaic Life Care,Mosaic Life Care at St. Joseph - General Surgery,–,MO,Missouri,Buchanan County,St. Joseph,64507,-,2018,39.73343913,-94.76130832
Mosaic Life Care,Mosaic Life Care at St. Joseph - Internal Medicine Mitchell Woods,–,MO,Missouri,Buchanan County,St. Joseph,64507,-,2018,39.73262009,-94.76295317
Mosaic Life Care,Mosaic life Care at St. Joseph - Mammography,–,MO,Missouri,Buchanan County,St. Joseph,64507,-,2018,39.73126216,-94.76419109
Mosaic Life Care,Mosaic Life Care at St. Joseph - Medical Oncology,–,MO,Missouri,Buchanan County,St. Joseph,64507,-,2018,39.72954875,-94.76485487
Mosaic Life Care,Mosaic Life Care at St. Joseph - Neurosurgery,–,MO,Missouri,Buchanan County,St. Joseph,64507,-,2018,39.72771125,-94.76485487
Mosaic Life Care,Mosaic Life Care at St. Joseph - Pain Management,–,MO,Missouri,Buchanan County,St. Joseph,64507,-,2018,39.72599784,-94.76419109
Mosaic Life Care,Mosaic Life Care at St. Joseph - Pediatrics,–,MO,Missouri,Buchanan County,St. Joseph,64507,-,2018,39.72463991,-94.76295317
Mosaic Life Care,Mosaic Life Care at St. Joseph - Podiatry,–,MO,Missouri,Buchanan County,St. Joseph,64507,-,2018,39.72382087,-94.76130832
Mosaic Life Care,Mosaic Life Care at St. Joseph - Radiation Oncology,–,MO,Missouri,Buchanan County,St. Joseph,64507,-,2018,39.72365133,-94.75947866
Mosaic Life Care,Mosaic Life Care at St. Joseph - Radiology Plaza 1,–,MO,Missouri,Buchanan County,St. Joseph,64507,-,2018,39.72415418,-94.75771131
Mosaic Life Care,Mosaic Life Care at St. Joseph - Rheumatology Care,–,MO,Missouri,Buchanan County,St. Joseph,64507,-,2018,39.72526152,-94.75624496
Mosaic Life Care,Mosaic Life Care at St. Joseph - Vascular Surgery,–,MO,Missouri,Buchanan County,St. Joseph,64507,-,2018,39.72682379,-94.75527764
Mosaic Life Care,Mosaic Life Care at St. Joseph - Vein care,–,MO,Missouri,Buchanan County,St. Joseph,64507,-,2018,39.72863,-94.75494
Mosaic Life Care,Mosaic Life Care at Trenton - Family Care,–,MO,Missouri,Grundy County,Trenton,64683,-,2018,40.08173013,-93.60416
Mosaic Life Care,"Cancer Care Services at Atchison, KS",–,KS,Kansas,Atchison County,Atchison,66002,-,2018,39.54453013,-95.13639
Mosaic Life Care,Cardiology Services at Atchison Kansas Hospital,171382,KS,Kansas,Atchison County,Atchison,66002,-,2018,39.54453013,-95.14139
Mosaic Life Care,Neurology Services at Atchison Kansas Hospital,–,KS,Kansas,Atchison County,Atchison,66002,-,2018,39.5402,-95.14389
Mosaic Life Care,Neurosurgery Services at Atchison Kansas Hospital,–,KS,Kansas,Atchison County,Atchison,66002,-,2018,39.53586987,-95.14139
Mosaic Life Care,Podiatry Services at Atchison Kansas Hospital,–,KS,Kansas,Atchison County,Atchison,66002,-,2018,39.53586987,-95.13639
Mosaic Life Care,Pulmonary Services at Atchison Kansas Hospital,–,KS,Kansas,Atchison County,Atchison,66002,-,2018,39.5402,-95.13389
Mosaic Life Care,Mosaic Life Care at Troy - Family Care,–,KS,Kansas,Doniphan County,Troy,66087,-,2018,39.79818,-95.12412
Mosaic Life Care,Neurology Services at Hiawatha Community Hospital,171341,KS,Kansas,Brown County,Hiawatha,66434,-,2018,39.86798,-95.54648
Mosaic Life Care,Neurology Services at Sabetha Community Hospital,171338,KS,Kansas,Nemaha County,Sabetha,66534,-,2018,39.88472,-95.83667
Mosaic Life Care,Neurology Services at nemaha Valley Community Hospital,171315,KS,Kansas,Nemaha County,Seneca,66538,-,2018,39.85249,-96.04433
LifePoint,Capital Medical Center,500139,WA,Washington,Thurston County,Olympia,98502,-,2011-2016,47.09052,-123.01238
MultiCare,MultiCare Allenmore Hospital,–,WA,Washington,Pierce County,Tacoma,98405,Non-profit,2011-2016,47.25014013,-122.4745
MultiCare,MultiCare Auburn Medical Center,500015,WA,Washington,King County,Auburn,98001,Non-profit,2011-2016,47.30998,-122.26521
MultiCare,MultiCare Covington Medical Center,500154,WA,Washington,King County,Covington,98042,Non-profit,2011-2016,47.36624,-122.11716
MultiCare,MultiCare Deaconess Hospital,500044,WA,Washington,Spokane County,Spokane,99204,Non-profit,2011-2016,47.64564,-117.42712
MultiCare,MultiCare Gig Harbor Medical Park,–,WA,Washington,Pierce County,Gig Harbor,98335,Non-profit,2011-2016,47.29895,-122.61392
MultiCare,MultiCare Good Samaritan Hospital,500079,WA,Washington,Pierce County,Puyallup,98372,Non-profit,2011-2016,47.20602,-122.27191
MultiCare,MultiCare Tacoma General Hospital,500129,WA,Washington,Pierce County,Tacoma,98405,Non-profit,2011-2016,47.24147987,-122.4745
Northeast Georgia Health System,Northeast Georgia Medical Center,110029,GA,Georgia,Hall County,Gainesville,30501,Non-profit,2011-2016,34.31853,-83.81617
MultiCare,MultiCare Valley Hospital,500119,WA,Washington,Spokane County,Spokane,99216,Non-profit,2011-2016,47.68,-117.20946
Northwest Physicians Network (NPN),Northwest Physicians Network,–,WA,Washington,Pierce County,Tacoma,98402,-,2011-2016,47.24859,-122.43869
Northwest Physicians Network (NPN),Sound Family Medicine - Bonney Lake,–,WA,Washington,Pierce County,Bonney Lake,98391,-,2011-2016,47.17717,-122.17228
Northwest Physicians Network (NPN),Sound Family Medicine - Puyallup,–,WA,Washington,Pierce County,Puyallup,98373,-,2011-2016,47.1476,-122.32519
Northwest Physicians Network (NPN),Sound Family Medicine - Puyallup,–,WA,Washington,Pierce County,Puyallup,98374,-,2011-2016,47.12996,-122.26195
Northwest Physicians Network (NPN),Summit View Clinic,–,WA,Washington,Pierce County,Puyallup,98373,-,2011-2016,47.1476,-122.32519
PeaceHealth,Sacred Heart Medical Center University District,380033,OR,Oregon,Lane,Eugene,97401,Non-profit,2019,44.06826,-123.08181
PeaceHealth,Cottage Grove Community Medical Center,381301,OR,Oregon,Lane,Cottage Grove,97424,Non-profit,2019,43.74446,-123.05448
PeaceHealth,PeaceHealth Peace Harbor Medical Center,381316,OR,Oregon,Lane,Florence,97439,Non-profit,2019,44.06609,-124.03756
PeaceHealth,Sacred Heart Medical Center at RiverBend,380102,OR,Oregon,Lane,Springfield,97477,Non-profit,2019,44.05874,-123.01121
Northwest Physicians Network (NPN),Viewpoint Medical Clinic,–,WA,Washington,Pierce County,Puyallup,98372,-,2011-2016,47.20602,-122.26191
PeaceHealth,PeaceHealth Peace Island Medical Center,501340,WA,Washington,San Juan County,Friday Harbor,98250,Non-profit,2011-2016,48.55815,-123.0915
PeaceHealth,PeaceHealth Southwest Medical Center,500050,WA,Washington,Clark,Vancouver,98664,Non-profit,2019,45.61981,-122.57752
PeaceHealth,PeaceHealth St. John Medical Center,500041,WA,Washington,Cowlitz,Longview,98632,Non-profit,2019,46.21685,-123.06853
PeaceHealth,PeaceHealth St. Joseph Medical Center,500030,WA,Washington,Whatcom County,Bellingham,98225,Non-profit,2011-2016,48.75309,-122.50149
PeaceHealth,PeaceHealth Ketchikan Medical Center,21311,AK,Alaska,Ketchikan Gateway,Ketchikan,99901,Non-profit,2019,55.56908,-131.01272
Presence Health,Presence Holy Family Medical Center,142011,IL,Illinois,Cook County,Des Plaines,60016,Non-profit,2011-2016,42.04972,-87.89166
Presence Health,Presence Saint Joseph Hospital Elgin,140217,IL,Illinois,Kane County,Elgin,60123,Non-profit,2011-2016,42.04022,-88.31131
Presence Health,Presence Saint Francis Hospital,140080,IL,Illinois,Cook County,Evanston,60202,Non-profit,2011-2016,42.03045,-87.68954
Presence Health,Presence Saint Joseph Medical Center,140007,IL,Illinois,Will County,Joliet,60435,Non-profit,2011-2016,41.54542,-88.12991
Presence Health,Presence Mercy Medical Center,140174,IL,Illinois,Kane County,Aurora,60506,Non-profit,2011-2016,41.76524,-88.36503
Presence Health,Presence Resurrection Medical Center,140117,IL,Illinois,Cook County,Chicago,60631,Non-profit,2011-2016,41.99475,-87.81316
Presence Health,Presence Saint Joseph Hospital Chicago,140224,IL,Illinois,Cook County,Chicago,60657,Non-profit,2011-2016,41.93998,-87.65374
Presence Health,Presence Covenant Medical Center,140113,IL,Illinois,Champaign County,Urbana,61801,Non-profit,2011-2016,40.10897,-88.2113
"Prime Health - Ontario, CA",Saint Mary's Medical Center,260193,MO,Missouri,Jackson County,Blue Springs,64014,For profit,2011-2016,39.00708,-94.25002
"Prime Health - Ontario, CA",Saint Joseph Medical Center,260085,MO,Missouri,Jackson County,Kansas City,64114,For profit,2011-2016,38.95798,-94.59725
"Prime Health - Ontario, CA",Saint Johns,170009,KS,Kansas,Leavenworth County,Leavenworth,66048,For profit,2018,39.28721013,-94.99662
"Prime Health - Ontario, CA",Providence Medical Center,170146,KS,Kansas,Wyandotte County,Kansas City,66112,For profit,2018,39.11451,-94.77362
LifePoint,KershawHealth,blank,SC,South Carolina,Kershaw County,Camden,29020,-,Future Prospects: 2020,34.31226,-80.59702
LifePoint,Carolina Pines Regional Medical Center,blank,SC,South Carolina,Darlington County,Hartsville,29550,-,Future Prospects: 2020,34.39887,-80.07734
LifePoint,Eliza Coffee Memorial Hospital,blank,AL,Alabama,Lauderdale County,Florence ,35630,-,Future Prospects: 2020,34.82363,-87.66057
LifePoint,Shoals Hospital,blank,AL,Alabama,Colbert County,Muscle,35661,-,Future Prospects: 2020,34.77344,-87.56508
LifePoint,Clinton Memorial Hospital,blank,OH,Ohio,Clinton County,Wilmington,45177,-,Future Prospects: 2020,39.46014,-83.83715
LifePoint,Ottumwa Regional Health Center,blank,AR,Arkansas,Wapello County,Ottumwa,52501,-,Future Prospects: 2020,41.03574,-92.43151
LifePoint,Community Medical Center,blank,MT,Montana,Missoula County,Missoula,59804,-,Future Prospects: 2020,46.90101,-114.25098
LifePoint,National Park Medical Center,blank,AR,Arkansas,Garland County,Hot Springs,71901,-,Future Prospects: 2020,34.52697,-92.97158
LifePoint,Saline Memorial Hospital,blank,AR,Arkansas,Saline County,Benton ,72015,-,Future Prospects: 2020,34.49332,-92.5896
LifePoint,Saint Mary’s Regional Medical Center,blank,AR,Arkansas,Pope County,Russellville,72801,-,Future Prospects: 2020,35.2791,-93.14081
LifePoint,Southwestern Medical Center,blank,OK,Oklahoma,Comanche County,Lawton,73505,-,Future Prospects: 2020,34.57886,-98.47856
LifePoint,Paris Regional Medical Center,blank,TX,Texas,Lamar County,Paris,75460,-,Future Prospects: 2020,33.65811,-95.60422
LifePoint,Canyon Vista Medical Center,blank,AZ,Arizona,Cochise County,Sierra Vista,85635,-,Future Prospects: 2020,31.57036,-110.17704
LifePoint,Willamette Valley Medical Center,blank,OR,Oregon,Yamhill County,McMinnville,97128,-,Future Prospects: 2020,45.19704,-123.25456
PeaceHealth,PeaceHealth United General Medical Center,501329,WA,Washington,Skagit County,Sedro-Woolley,98284,Non-profit,2011-2016,48.55308,-122.12046
LifePoint,Trios Health,blank,WA,Washington,Benton County,Kennewick,99338,-,Future Prospects: 2020,46.14795,-119.27355
Saint Luke's Health System,Saint Luke's Primary Care - Blue Springs,–,MO,Missouri,Jackson County,Blue Springs,64014,Non-profit,2011-2016,39.00708,-94.26002
Saint Luke's Health System,Saint Luke's Primary Care - Independence,–,MO,Missouri,Jackson County,Independence,64055,Non-profit,2011-2016,39.05071,-94.39855
Saint Luke's Health System,Saint Luke's Primary Care - Platte City,–,MO,Missouri,Platte County,Platte City,64079,Non-profit,2011-2016,39.35777,-94.79601
Saint Luke's Health System,Saint Luke's East Hospital,260216,MO,Missouri,Jackson County,Lee's Summit,64086,Non-profit,2011-2016,38.91221013,-94.29003
Saint Luke's Health System,Saint Luke's Primary Care - East,260216,MO,Missouri,Jackson County,Lee's Summit,64086,Non-profit,2011-2016,38.90354987,-94.29003
Saint Luke's Health System,Saint Luke's Primary Care - Lee's Summit,–,MO,Missouri,Jackson County,Lees Summit,64086,Non-profit,2011-2016,38.90788,-94.28253
Saint Luke's Health System,Saint Luke's North Hospital–Smithville,–,MO ,none,Clay County,Smithville,64089,Non-profit,2011-2016,39.39659013,-94.56511
Saint Luke's Health System,Saint Luke's Primary Care - Smithville,–,MO,Missouri,Clay County,Smithville,64089,Non-profit,2011-2016,39.38792987,-94.56511
Saint Luke's Health System,Saint Luke's Primary Care - Smithville South,–,MO,Missouri,Clay County,Smithville,64089,Non-profit,2011-2016,39.39226,-94.55761
Saint Luke's Health System,Saint Luke's Hospital Medical Education Internal Medicine Clinic,–,MO,Missouri,Jackson County,Kansas City,64111,Non-profit,2011-2016,39.06256,-94.5939
Saint Luke's Health System,Saint Luke's Hospital Medicine Specialists,–,MO,Missouri,Jackson County,Kansas City,64111,Non-profit,2011-2016,39.05756,-94.5989
Saint Luke's Health System,Saint Luke's Hospital of Kansas City,260138,MO,Missouri,Jackson County,Kansas City,64111,Non-profit,2011-2016,39.05256,-94.5939
Saint Luke's Health System,Saint Luke's Primary Care - Plaza,–,MO,Missouri,Jackson County,Kansas City,64111,Non-profit,2011-2016,39.05756,-94.5889
Saint Luke's Health System,Saint Luke's Crittenton Children's Center,–,MO,Missouri,Jackson County,Kansas City,64134,Non-profit,2011-2016,38.92947,-94.49174
Saint Luke's Health System,Saint Luke's Hospital of Kansas City's Crittenton Children's Center,–,MO,Missouri,Jackson County,Kansas City,64134,Non-profit,2011-2016,38.92947,-94.48174
Saint Luke's Health System,Saint Luke's Primary Care - Parkville,–,MO,Missouri,Platte County,Parkville,64152,Non-profit,2011-2016,39.2129,-94.7205
Saint Luke's Health System,Saint Luke's North Hospital–Barry Road,260062,MO ,none,Platte County,Kansas City,64154,Non-profit,2011-2016,39.27837,-94.63587
Saint Luke's Health System,Saint Luke's Primary Care - Barry Road,–,MO,Missouri,Platte County,Kansas City,64154,Non-profit,2011-2016,39.27837,-94.62587
Saint Luke's Health System,Saint Luke's Primary Care - Highland Plaza,–,MO,Missouri,Clay County,Kansas City,64157,Non-profit,2011-2016,39.27616,-94.47186
Saint Luke's Health System,Saint Luke's Primary Care - Shoal Creek,–,MO,Missouri,Clay County,Kansas City,64158,Non-profit,2011-2016,39.23531,-94.48314
Saint Luke's Health System,Hedrick Family Care,–,MO,Missouri,Livingston County,Chillicothe,64601,Non-profit,2011-2016,39.80694,-93.58148
Saint Luke's Health System,Hedrick Medical Center,261321,MO ,none,Livingston County,Chillicothe,64601,Non-profit,2011-2016,39.80694,-93.57148
Saint Luke's Health System,Saint Luke's Mercer County Clinic,–,MO,Missouri,Mercer County,Princeton,64673,Non-profit,2011-2016,40.37745,-93.58665
Saint Luke's Health System,Wright Memorial Hospital,261309,MO,Missouri,Grundy County,Trenton,64683,Non-profit,2011-2016,40.07306987,-93.60416
Saint Luke's Health System,Wright Memorial Physicians Group,–,MO,Missouri,Grundy County,Trenton,64683,Non-profit,2011-2016,40.0774,-93.59666
Saint Luke's Health System,Saint Luke's Primary Care - Clinton,–,MO,Missouri,Henry County,Clinton,64735,Non-profit,2011-2016,38.36746,-93.74306
Saint Luke's Health System,Anderson County Hospital,171316,KS,Kansas,Anderson County,Garnett,66032,Non-profit,2011-2016,38.28231,-95.27822
Saint Luke's Health System,Family Care Center,–,KS,Kansas,Anderson County,Garnett,66032,Non-profit,2011-2016,38.28231,-95.26822
Saint Luke's Health System,Saint Luke's Primary Care - Lansing,–,KS,Kansas,Leavenworth County,Lansing,66043,Non-profit,2011-2016,39.25162,-94.8784
Saint Luke's Health System,Saint Luke's Cushing Hospital,170133,KS,Kansas,Leavenworth County,Leavenworth,66048,Non-profit,2011-2016,39.27854987,-94.99662
Saint Luke's Health System,Saint Luke's Primary Care - Cushing,–,KS,Kansas,Leavenworth County,Leavenworth,66048,Non-profit,2011-2016,39.28288,-94.98912
Saint Luke's Health System,Saint Luke's Community Hospital,–,KS,Kansas,Johnson County,Olathe,66062,Non-profit,2011-2016,38.83454,-94.77799
Saint Luke's Health System,Saint Luke’s Community Hospital,–,KS,Kansas,Wyandotte County,Kansas City,66109,Non-profit,2011-2016,39.16346,-94.82807
Saint Luke's Health System,Saint Luke’s Community Hospital,–,KS,Kansas,Johnson County,Overland Park,66204,Non-profit,2011-2016,38.99288,-94.67711
Saint Luke's Health System,Saint Luke's Community Hospital,–,KS,Kansas,Johnson County,Roeland Park,66205,Non-profit,2011-2016,39.03124,-94.6307
Saint Luke's Health System,Saint Luke's Primary Care - Mission Farms,–,KS,Kansas,Johnson County,Overland Park,66207,Non-profit,2011-2016,38.95589,-94.6444
Saint Luke's Health System,Saint Luke’s Community Hospital,–,KS ,none,Johnson County,Leawood,66209,Non-profit,2011-2016,38.8991,-94.63373
Saint Luke's Health System,Kansas City Orthopaedic Institute,170188,KS,Kansas,Johnson County,Leawood,66211,Non-profit,2011-2016,38.92358,-94.63686
Saint Luke's Health System,Saint Luke's Primary Care - Southridge,–,KS,Kansas,Johnson County,Overland Park,66213,Non-profit,2011-2016,38.89918,-94.71042
Saint Luke's Health System,Saint Luke's South Hospital,170185,KS ,none,Johnson County,Overland Park,66213,Non-profit,2011-2016,38.89918,-94.70042
Saint Luke's Health System,Saint Luke's Primary Care - Blue Valley,170201,KS,Kansas,Johnson County,Leawood,66224,Non-profit,2011-2016,38.86291,-94.62815
Skagit Regional Health System,Skagit Regional Clinics - Mount Vernon,500003,WA,Washington,Skagit County,Mount Vernon,98274,Non-profit,2011-2016,48.35936,-122.14553
Spartanburg Regional Healthcare System,North Grove,–,SC,South Carolina,Spartanburg County,Spartanburg,29303,Non-profit,2017,34.99338,-81.97235
Spartanburg Regional Healthcare System,Spartanburg Medical Center,420007,SC,South Carolina,Spartanburg County,Spartanburg,29303,Non-profit,2017,34.99338,-81.96235
Spartanburg Regional Healthcare System,Union Medical Center,420108,SC,South Carolina,Union County,Union,29379,Non-profit,2017,34.68076,-81.60943
Spartanburg Regional Healthcare System,Pelham Medical Center,420103,SC,South Carolina,Greenville County,Greer,29651,Non-profit,2017,34.94719,-82.22597
SSM Health Care,SSM Health St. Clare Hospital,260081,MO,Missouri,St. Louis County,Fenton,63026,Non-profit,2011-2016,38.50276,-90.4603
SSM Health Care,SSM Health DePaul Hospital,260104,MO ,none,St. Louis County,St. Louis,63044,Non-profit,2011-2016,38.76981,-90.42897
SSM Health Care,SSM Health Saint Louis University Hospital,260105,MO,Missouri,St. Louis city,St. Louis,63110,Non-profit,2011-2016,38.62586,-90.26699
SSM Health Care,SSM Health St. Mary's Hospital ,260064,MO ,none,St. Louis County,St. Louis,63117,Non-profit,2011-2016,38.63082,-90.33105
SSM Health Care,SSM Health Care St. Louis,–,MO ,none,St. Louis County,St. Louis,63132,Non-profit,2011-2016,38.67595,-90.37789
SSM Health Care,SSM Health St. Joseph Hospital,–,MO ,none,St. Charles County,St. Louis,63301,Non-profit,2011-2016,38.86333,-90.46736
SSM Health Care,SSM Health St. Joseph Hospital - Lake Saint Louis,260200,MO ,none,St. Charles County,St. Louis,63367,Non-profit,2011-2016,38.7778,-90.79555
SSM Health Care,SSM Health St. Joseph Hospital,260005,MO,Missouri,St. Charles County,Wentzville,63385,Non-profit,2011-2016,38.79701,-90.85757
St. Luke's Hospital,St. Luke's Hospital,260179,MO ,none,St. Louis County,Chesterfield,63017,Non-profit,2011-2016,38.65104,-90.53142
Tenet Healthcare,Abrazo Arizone Heart Hospital,–,AZ,Arizona,Maricopa County,Phoenix,85016,For profit,2017,33.51359,-112.02967
Tenet Healthcare,Abrazo Arrowhead Campus,30094,AZ,Arizona,Maricopa County,Glendale,85308,For profit,2017,33.66051,-112.18462
Tenet Healthcare,Abrazo Central Hospital,30030,AZ,Arizona,Maricopa County,Phoenix,85015,For profit,2017,33.50917,-112.10179
Tenet Healthcare,Abrazo Maryvale Campus,–,AZ,Arizona,Maricopa County,Phoenix,85031,For profit,2017,33.49492,-112.16833
Tenet Healthcare,Abrazo Scottsdale Campus,30083,AZ,Arizona,Maricopa County,Phoenix,85032,For profit,2017,33.6263,-112.00381
Tenet Healthcare,Abrazo West Campus,30110,AZ,Arizona,Maricopa County,Goodyear,85395,For profit,2017,33.47905,-112.39451
Tenet Healthcare,Baptist Medical Center,450058,TX,Texas,Bexar County,San Antonio,78205,For profit,2017,29.42353,-98.48595
Tenet Healthcare,Baylor Scott & White Medical Center - Centennial,450885,TX,Texas,Collin County,Frisco,75035,For profit,2017,33.15534,-96.7727
Tenet Healthcare,Baylor Scott & White Medical Center - Lake Pointe,450742,TX,Texas,Dallas County,Rowlett,75088,For profit,2017,32.89229,-96.54917
Tenet Healthcare,Baylor Scott & White Medical Center - Sunnyvale,670060,TX,Texas,Dallas County,Sunnyvale,75182,For profit,2017,32.80014,-96.55405
Tenet Healthcare,Baylor Scott & White Medical Center - White Rock,450678,TX,Texas,Dallas County,Dallas,75218,For profit,2017,32.84154,-96.70236
Tenet Healthcare,Brookwood Baptist Medical Center,10139,AL,Alabama,Jefferson County,Birmingham,35209,For profit,2017,33.46534,-86.81159
Tenet Healthcare,Carondelet Holy Cross Hospital,31313,AZ,Arizona,Santa Cruz County,Nogales,85621,For profit,2017,31.42297,-111.04539
Tenet Healthcare,Carondelet St. Joseph's Hospital,30011,AZ,Arizona,Pima County,Tucson,85711,For profit,2017,32.21523,-110.88841
Tenet Healthcare,Carondelet St. Mary's Hospital,30010,AZ,Arizona,Pima County,Tucson,85745,For profit,2017,32.25879,-111.09472
Tenet Healthcare,Citizens Baptist Medical Center,10101,AL,Alabama,Talladega County,Talladega,35160,For profit,2017,33.37483,-86.08659
Tenet Healthcare,Coastal Carolina Hospital,420101,SC,South Carolina,Jasper County,Hardeeville,29927,For profit,2017,32.23046,-81.04404
Tenet Healthcare,Coral Gables Hospital,100183,FL,Florida,Miami-Dade County,Coral Gables,33134,For profit,2017,25.75345,-80.27108
Tenet Healthcare,Delray Medical Center,100258,FL,Florida,Palm Beach County,Delray Beach,33484,For profit,2017,26.45428,-80.1345
Tenet Healthcare,Des Peres Hospital,260176,MO,Missouri,St. Louis County,St. Louis,63122,For profit,2017,38.57921,-90.42015
Tenet Healthcare,Desert Regional Medical Center,50243,CA,California,Riverside County,Palm Springs,92262,For profit,2017,33.86057,-116.56152
Tenet Healthcare,DMC Detroit Receiving Hospital,230273,MI,Michigan,Wayne County,Detroit,48201,For profit,2017,42.34703,-83.06514
Tenet Healthcare,DMC Huron Valley - Sinai Hospital,230277,MI,Michigan,Oakland County,Commerce,48382,For profit,2017,42.59073,-83.50588
Tenet Healthcare,DMC Hutzel Women's Hospital,blank,MI,Michigan,Wayne County,Detroit,48201,For profit,2017,42.34703,-83.05514
Tenet Healthcare,DMC Sinai-Grace Hospital,230024,MI,Michigan,Wayne County,Detroit,48235,For profit,2017,42.42704,-83.19486
Tenet Healthcare,Doctors Hospital of Manteca,50118,CA,California,San Joaquin County,Mateca,95336,For profit,2017,37.83236,-121.19703
Tenet Healthcare,Doctors Medical Center of Modesto,50464,CA,California,Stanislaus County,Modesto,95350,For profit,2017,37.67192,-121.0073
Tenet Healthcare,East Cooper Medical Center,420089,SC,South Carolina,Charleston County,Mt. Pleasant,29464,For profit,2017,32.82037,-79.85636
Tenet Healthcare,Emanuel Medical Center,50179,CA,California,Stanislaus County,Turlock,95382,For profit,2017,37.5284,-120.85304
Tenet Healthcare,Florida Medical Center - North Shore,–,FL,Florida,Broward County,Fort Lauderdale,33313,For profit,2017,26.15044,-80.22638
Tenet Healthcare,Fountain Valley Regional Hospital,50570,CA,California,Orange County,Fountain Valley,92708,For profit,2017,33.71052,-117.9512
Tenet Healthcare,Good Samaritan Medical Center,100287,FL,Florida,Palm Beach County,West Palm Beach,33401,For profit,2017,26.71649,-80.06779
Tenet Healthcare,Hahnermann University Hospital,390290,PA,Pennsylvania,Philadelphia County,Philadelphia,19102,For profit,2017,39.95289,-75.16548
Tenet Healthcare,Hialeah Hospital,100053,FL,Florida,Miami-Dade County,Hialeah,33013,For profit,2017,25.8623,-80.27029
Tenet Healthcare,Hi-Desert Medical Center,50279,CA,California,San Bernardino County,Joshua Tree,92252,For profit,2017,34.16837,-116.2884
Tenet Healthcare,Hilton Head Hospital,420080,SC,South Carolina,Beaufort County,Hilton Head,29926,For profit,2017,32.22801,-80.75234
Tenet Healthcare,JFK Memorial Hospital,50534,CA,California,Riverside County,Indio,92201,For profit,2017,33.69743,-116.10327
Tenet Healthcare,Lakewood Regional Medical Center,50581,CA,California,Los Angeles County,Lakewood,90712,For profit,2017,33.84901,-118.14672
Tenet Healthcare,Los Alamitos Medical Center,50551,CA,California,Orange County,Los Alamitos,90720,For profit,2017,33.79557,-118.0636
Tenet Healthcare,MetroWest Medical Center - Framingham Union Hospital,220175,MA,Massachusetts,Middlesex County,Framingham,1702,For profit,2017,42.28217,-71.43387
Tenet Healthcare,MetroWest Medical center - Leonard Morse Hospital,blank,MA,Massachusetts,Middlesex County,Natick,1760,For profit,2017,42.28434,-71.34983
Tenet Healthcare,Mission Trail Baptist Hospital,–,TX,Texas,Bexar County,San Antonio,78235,For profit,2017,29.34604,-98.44367
Tenet Healthcare,Nacogdoches Medical Center,450656,TX,Texas,Nacogdoches County,Nacogdoches,75965,For profit,2017,31.72385,-94.62609
Tenet Healthcare,North Central Baptist Hospital,–,TX,Texas,Bexar County,San Antonio,78258,For profit,2017,29.6337,-98.49105
Tenet Healthcare,North Shore Medical Center,100210,FL,Florida,Miami-Dade County,Miami,33150,For profit,2017,25.85204,-80.20711
Tenet Healthcare,Northeast Baptist Hospital,–,TX,Texas,Bexar County,San Antonio,78217,For profit,2017,29.54045,-98.42007
Tenet Healthcare,Palm Beach Gardens Medical Center,100176,FL,Florida,Palm Beach County,Palm Beach Gardens,33410,For profit,2017,26.84659,-80.08803
Tenet Healthcare,Palmetto General Hospital,100187,FL,Florida,Miami-Dade County,Hialeah,33016,For profit,2017,25.8949,-80.33243
Tenet Healthcare,Piedmont Medical Center,420002,SC,South Carolina,York County,Rock Hill,29732,For profit,2017,34.96969,-81.07934
Tenet Healthcare,Placentia - Linda Hospital,50589,CA,California,Orange County,Placentia,92870,For profit,2017,33.88076,-117.85512
Tenet Healthcare,Princeton Baptist Medical Center,10103,AL,Alabama,Jefferson County,Birmingham,35211,For profit,2017,33.4501,-86.87147
Tenet Healthcare,Resolute Health Hospital,670098,TX,Texas,Comal County,New Braunfels,78130,For profit,2017,29.69772,-98.0702
Tenet Healthcare,Saint Francis Hospital - Bartlett,440228,TN,Tennessee,Shelby County,Bartlett,38133,For profit,2017,35.21293,-89.79427
Tenet Healthcare,Saint Franics Hospital - Memphis,440183,TN,Tennessee,Shelby County,Memphis,38119,For profit,2017,35.07978,-89.84589
Tenet Healthcare,Saint Vincent Hospital,220176,MA,Massachusetts,Worcester County,Worcester,1608,For profit,2017,42.26185,-71.80162
Tenet Healthcare,San Ramon Regional Medical Center,50689,CA,California,Contra Costa County,San Ramon,94583,For profit,2017,37.75515,-121.97273
Tenet Healthcare,Shelby Baptist Medical Center,10016,AL,Alabama,Shelby County,Alabaster,35007,For profit,2017,33.21591,-86.79717
Tenet Healthcare,Sierra Vista Regional Medical Center,50506,CA,California,San Luis Obispo County,San Luis Obispo,93405,For profit,2017,35.29781,-120.72717
Tenet Healthcare,St. Luke's Baptist Hospital,–,TX,Texas,Bexar County,San Antonio,78229,For profit,2017,29.50555,-98.5672
Tenet Healthcare,St. Mary's Medical Center,100288,FL,Florida,Palm Beach County,West Palm Beach,33407,For profit,2017,26.75779,-80.08574
Tenet Healthcare,The Hospitals of Providence East Campus,670047,TX,Texas,El Paso County,El Paso,79938,For profit,2017,31.83091,-105.97012
Tenet Healthcare,The Hospitals of Providence Memorial Campus,450002,TX,Texas,El Paso County,El Paso,79902,For profit,2017,31.77978987,-106.5004
Tenet Healthcare,The Hospitals of Providence Sierra Campus,450668,TX,Texas,El Paso County,El Paso,79902,For profit,2017,31.78412,-106.4929
Tenet Healthcare,The Hospitals of Providence Transmountain Campus,670120,TX,Texas,El Paso County,El Paso,79911,For profit,2017,31.89246,-106.54251
Tenet Healthcare,Twin Cities Community Hospital,50633,CA,California,San Luis Obispo County,Templeton,93465,For profit,2017,35.54014,-120.73304
Tenet Healthcare,Valley Baptist Medical Center,450028,TX,Texas,Cameron County,Brownsville,78520,For profit,2017,25.96396,-97.55009
Tenet Healthcare,Valley Baptist Medical Center,450033,TX,Texas,Cameron County,Harlingen,78550,For profit,2017,26.25668,-97.66671
Tenet Healthcare,Walker Baptist Medical Center,10089,AL,Alabama,Walker County,Jasper,35501,For profit,2017,33.81908,-87.29271
Tenet Healthcare,Weiss (Louis A.) Memorial Hospital,140082,IL,Illinois,Cook County,Chicago,60640,For profit,2017,41.97236,-87.66347
Tenet Healthcare,West Boca Medical Center,100268,FL,Florida,Palm Beach County,Boca Raton,33428,For profit,2017,26.34933,-80.21542
Tenet Healthcare,West Suburban Medical Center,140049,IL,Illinois,Cook County,Oak Park,60302,For profit,2017,41.89463,-87.78971
Tenet Healthcare,Westlake Hospital,140240,IL,Illinois,Cook County,Melrose Park,60160,For profit,2017,41.90414,-87.85564
CHS,Tennova Healthcare - Lebanon,440193,TN,Tennessee,Wilson County,,37087,For profit,2011-2016,36.27275,-86.27211
CHS,Lakeway Regional Hospital,440067,TN,Tennessee,Hamblen County,,37814,For profit,2011-2016,36.23562,-83.33154
CHS,Physicians Regional Medical Center,440120,TN,Tennessee,Knox County,,37917,For profit,2011-2016,36.00121,-83.91371
Trinity Health,Mercy Hospital & Medical Center,blank,IL,Illinois,Cook County,,60616,Non-profit,Future Prospects: 2020,41.85022,-87.62721
Trinity Health,The Mercy Community,blank,CT,Connecticut,Hartford County,,6117,Non-profit,Future Prospects: 2020,41.78692,-72.76199
Trinity Health,Lourdes Health System,blank,NJ,New Jersey,Camden County,,8103,Non-profit,Future Prospects: 2020,39.93577,-75.11351
Trinity Health,St. Francis Medical Center,blank,NJ,New Jersey,Mercer County,,8629,Non-profit,Future Prospects: 2020,40.22064,-74.73122
Trinity Health,St. Peter's Health Partners,blank,NY,New York,Albany County,,12208,Non-profit,Future Prospects: 2020,42.65331,-73.81021
Trinity Health,St. Joseph's Health,blank,NY,New York,Onondaga County,,13203,Non-profit,Future Prospects: 2020,43.06114,-76.13495
Trinity Health,Catholic Health,blank,NY,New York,Erie County,,14220,Non-profit,Future Prospects: 2020,42.84564,-78.82324
Trinity Health,Pittsburgh Mercy,blank,PA,Pennsylvania,Allegheny County,,15233,Non-profit,Future Prospects: 2020,40.46092,-80.03489
Trinity Health,St. Mary Medical Center,blank,PA,Pennsylvania,Bucks County,,19047,Non-profit,Future Prospects: 2020,40.18133,-74.91042
Trinity Health,Mercy Health System of Southeastern Pennsylvania,blank,PA,Pennsylvania,Philadelphia County,,19143,Non-profit,Future Prospects: 2020,39.94289,-75.22636
Trinity Health,Saint Francis Healthcare,blank,DE,Delaware,New Castle County,,19805,Non-profit,Future Prospects: 2020,39.74475,-75.59269
Trinity Health,Holy Cross Health,blank,MD,Maryland,Montgomery County,,20910,Non-profit,Future Prospects: 2020,39.00219,-77.03635
Trinity Health,St. Joseph of the Pines,blank,SC,South Carolina,Moore County,,28387,Non-profit,Future Prospects: 2020,35.17912,-79.37608
Trinity Health,Saint Joseph's Health System,blank,GA,Georgia,Fulton County,,30308,Non-profit,Future Prospects: 2020,33.77121,-84.3731
Trinity Health,St. Mary's Heath Care System,blank,GA,Georgia,Clarke County,,30606,Non-profit,Future Prospects: 2020,33.9396,-83.42878
Trinity Health,Holy Cross Hospital,blank,FL,Florida,Broward County,,33308,Non-profit,Future Prospects: 2020,26.18968,-80.10846
Trinity Health,BayCare Health System,blank,FL,Florida,Pinellas County,,33756,Non-profit,Future Prospects: 2020,27.94449,-82.79241
Trinity Health,Allegany Franciscan Ministries,blank,FL,Florida,Pinellas County,,34684,Non-profit,Future Prospects: 2020,28.08125,-82.72772
Trinity Health,"Mercy Medical, Daphne",blank,AL,Alabama,Mobile County,,36607,Non-profit,Future Prospects: 2020,30.69859,-88.10575
Trinity Health,Mount Carmel Health System,blank,OH,Ohio,Franklin County,,43222,Non-profit,Future Prospects: 2020,39.96119,-83.03526
Trinity Health,Saint Joseph Health System,blank,IN,Indiana,St. Joseph County,,46545,Non-profit,Future Prospects: 2020,41.693,-86.1464
Trinity Health,Saint Joseph Mercy Health System,blank,MI,Michigan,Washtenaw County,,48197,Non-profit,Future Prospects: 2020,42.19714,-83.62885
Trinity Health,"Mercy Health, Grand Rapids",blank,MI,Michigan,Muskegon County,,49442,Non-profit,Future Prospects: 2020,43.24202,-86.12904
Trinity Health,Mercy Health Network,blank,IA,Iowa,Polk County,,50266,Non-profit,Future Prospects: 2020,41.56942,-93.79931
Trinity Health,Loyola Medicine,blank,IL,Illinois,Cook County,,60153,Non-profit,Future Prospects: 2020,41.8793,-87.84827
Trinity Health,Loyola University Medical Center,140276,IL,Illinois,Cook County,Maywood,60153,Non-profit,2018,41.8793,-87.83827
Trinity Health,Gottlieb Memorial Hospital,140008,IL,Illinois,Cook County,Melrose Park,60160,Non-profit,2018,41.90414,-87.86564
Trinity Health,MacNeal Hospital,140054,IL,Illinois,Cook County,Berwyn,60402,Non-profit,2018,41.83469,-87.79139
Trinity Health,Saint Alphonsus Health System,blank,ID,Idaho,Ada County,,83706,Non-profit,Future Prospects: 2020,43.59139,-116.19484
Trinity Health,Saint Agnes Medical Center,blank,CA,California,Fresno County,,93720,Non-profit,Future Prospects: 2020,36.86031,-119.76157
Ardent,UT Health Carthage,450210,TX,Texas,Panola,Carthage,75633,-,2019,32.12895,-94.27705
Ardent,UT Health Henderson,450475,TX,Texas,Rusk,Henderson,75652,-,2019,32.22989,-94.73272
Ardent,UT Health Pittsburg,451367,TX,Texas,Camp,Pittsburg,75686,-,2019,32.96953,-94.95017
Ardent,UT Health East Texas Behavioral Health Center,–,TX,Texas,Smith,Tyler,75701,-,2019,32.32829,-95.30091
Ardent,UT Health East Texas Long-Term Acute Care,–,TX,Texas,Smith,Tyler,75701,-,2019,32.32329,-95.30591
Ardent,UT Health East Texas Rehabilitation Center,452051,TX,Texas,Smith,Tyler,75701,-,2019,32.31829,-95.30091
Ardent,UT Health Tyler,450083,TX,Texas,Smith,Tyler,75701,-,2019,32.32329,-95.29591
Ardent,UT Health North Campus Tyler,–,TX,Texas,Smith,Tyler,75708,-,2019,32.41635,-95.20958
Ardent,UT Health Athens,450389,TX,Texas,Henderson,Athens,75751,-,2019,32.09642,-95.9083
Ardent,UT Health Jacksonville,450194,TX,Texas,Cherokee,Jacksonville,75766,-,2019,31.9462,-95.25704
Ardent,UT Health Quitman,451380,TX,Texas,Wood,Quitman,75783,-,2019,32.82157,-95.42366
Washington Regional Medical Center,Washington Regional Medical Center,40004,AR,Arkansas,Washington County,Fayetteville,72703,Non-profit,2017,36.11505,-94.04393
